<?xml version="1.0" encoding="utf-8" ?>
<kml xmlns="http://www.opengis.net/kml/2.2">
<Document id="root_doc">
<Folder><name>solar_panels_sample_v2</name>
  <Placemark>
	<name>8</name>
	<Style><LineStyle><color>ff0000ff</color></LineStyle><PolyStyle><fill>0</fill></PolyStyle></Style>
      <Polygon><outerBoundaryIs><LinearRing><coordinates>19.0116336964641,-32.583408685107 19.0113171958003,-32.5834719665345 19.0109993540321,-32.5835544583283 19.0110422693763,-32.5837341319726 19.0113560878311,-32.5836539003898 19.0116752707038,-32.5835815789015 19.0116336964641,-32.583408685107</coordinates></LinearRing></outerBoundaryIs></Polygon>
  </Placemark>
  <Placemark>
	<name>22</name>
	<Style><LineStyle><color>ff0000ff</color></LineStyle><PolyStyle><fill>0</fill></PolyStyle></Style>
      <Polygon><outerBoundaryIs><LinearRing><coordinates>27.2711683127561,-27.6249165071117 27.2711750182786,-27.6249295775453 27.2712487790265,-27.6249188835543 27.2712380501904,-27.6248998720122 27.2711683127561,-27.6249165071117</coordinates></LinearRing></outerBoundaryIs></Polygon>
  </Placemark>
  <Placemark>
	<name>185</name>
	<Style><LineStyle><color>ff0000ff</color></LineStyle><PolyStyle><fill>0</fill></PolyStyle></Style>
      <Polygon><outerBoundaryIs><LinearRing><coordinates>28.1406163153774,-26.3473481248239 28.1406163153774,-26.3473721606322 28.1405827877647,-26.347375766003 28.1405935166007,-26.347439460869 28.1407209215289,-26.3474214340237 28.1407115337974,-26.3473397122897 28.1406163153774,-26.3473481248239</coordinates></LinearRing></outerBoundaryIs></Polygon>
  </Placemark>
  <Placemark>
	<name>352</name>
	<Style><LineStyle><color>ff0000ff</color></LineStyle><PolyStyle><fill>0</fill></PolyStyle></Style>
      <Polygon><outerBoundaryIs><LinearRing><coordinates>18.4756690628347,-34.0440573391784 18.4756288296995,-34.0440740079123 18.4756556517896,-34.0441151241086 18.4757012493429,-34.0440928991401 18.4756690628347,-34.0440573391784</coordinates></LinearRing></outerBoundaryIs></Polygon>
  </Placemark>
  <Placemark>
	<name>362</name>
	<Style><LineStyle><color>ff0000ff</color></LineStyle><PolyStyle><fill>0</fill></PolyStyle></Style>
      <Polygon><outerBoundaryIs><LinearRing><coordinates>25.6158865213526,-32.744949295979 25.6159294366969,-32.7450575824886 25.6159495532645,-32.7450530705533 25.6159093201293,-32.744943656053 25.6158865213526,-32.744949295979</coordinates></LinearRing></outerBoundaryIs></Polygon>
  </Placemark>
  <Placemark>
	<name>363</name>
	<Style><LineStyle><color>ff0000ff</color></LineStyle><PolyStyle><fill>0</fill></PolyStyle></Style>
      <Polygon><outerBoundaryIs><LinearRing><coordinates>25.6158744514121,-32.7449526799344 25.6158516526354,-32.7449628317999 25.6158972501887,-32.7450699903094 25.6159213900698,-32.7450598384562 25.6158744514121,-32.7449526799344</coordinates></LinearRing></outerBoundaryIs></Polygon>
  </Placemark>
  <Placemark>
	<name>364</name>
	<Style><LineStyle><color>ff0000ff</color></LineStyle><PolyStyle><fill>0</fill></PolyStyle></Style>
      <Polygon><outerBoundaryIs><LinearRing><coordinates>22.0891608414597,-34.1818356852566 22.0891608414597,-34.1818767345417 22.0892292377896,-34.1818800628613 22.0892319199986,-34.1818434513391 22.0891608414597,-34.1818356852566</coordinates></LinearRing></outerBoundaryIs></Polygon>
  </Placemark>
  <Placemark>
	<name>691</name>
	<Style><LineStyle><color>ff0000ff</color></LineStyle><PolyStyle><fill>0</fill></PolyStyle></Style>
      <Polygon><outerBoundaryIs><LinearRing><coordinates>24.7441786413581,-28.7440670857993 24.7441826646717,-28.7440858993815 24.7442296033294,-28.7440753167419 24.7442282622249,-28.744058854856 24.7441786413581,-28.7440670857993</coordinates></LinearRing></outerBoundaryIs></Polygon>
  </Placemark>
  <Placemark>
	<name>843</name>
	<Style><LineStyle><color>ff0000ff</color></LineStyle><PolyStyle><fill>0</fill></PolyStyle></Style>
      <Polygon><outerBoundaryIs><LinearRing><coordinates>28.3081417052142,-26.1898625718371 28.3081685273043,-26.1899034881775 28.3082087604395,-26.1898818265873 28.3081846205584,-26.1898457239281 28.3081417052142,-26.1898625718371</coordinates></LinearRing></outerBoundaryIs></Polygon>
  </Placemark>
  <Placemark>
	<name>894</name>
	<Style><LineStyle><color>ff0000ff</color></LineStyle><PolyStyle><fill>0</fill></PolyStyle></Style>
      <Polygon><outerBoundaryIs><LinearRing><coordinates>30.2307289744105,-28.1696752786929 30.2307450676646,-28.1696941947757 30.2307826185908,-28.1696634561394 30.2307665253367,-28.1696469045623 30.2307289744105,-28.1696752786929</coordinates></LinearRing></outerBoundaryIs></Polygon>
  </Placemark>
  <Placemark>
	<name>919</name>
	<Style><LineStyle><color>ff0000ff</color></LineStyle><PolyStyle><fill>0</fill></PolyStyle></Style>
      <Polygon><outerBoundaryIs><LinearRing><coordinates>30.4142215886949,-29.5614297708174 30.4142081776498,-29.5614519348704 30.4143020549654,-29.5615044286609 30.4143114426969,-29.5614799315621 30.4142215886949,-29.5614297708174</coordinates></LinearRing></outerBoundaryIs></Polygon>
  </Placemark>
  <Placemark>
	<name>1263</name>
	<Style><LineStyle><color>ff0000ff</color></LineStyle><PolyStyle><fill>0</fill></PolyStyle></Style>
      <Polygon><outerBoundaryIs><LinearRing><coordinates>27.862156948452,-26.6822911582832 27.862173041706,-26.6822839685395 27.8621529251384,-26.682256407851 27.8621368318843,-26.6822659941782 27.862156948452,-26.6822911582832</coordinates></LinearRing></outerBoundaryIs></Polygon>
  </Placemark>
  <Placemark>
	<name>1264</name>
	<Style><LineStyle><color>ff0000ff</color></LineStyle><PolyStyle><fill>0</fill></PolyStyle></Style>
      <Polygon><outerBoundaryIs><LinearRing><coordinates>27.8597457964737,-26.677526582913 27.8597525019962,-26.6775361696378 27.8597712774593,-26.677526582913 27.8597645719368,-26.6775181945281 27.8597457964737,-26.677526582913</coordinates></LinearRing></outerBoundaryIs></Polygon>
  </Placemark>
  <Placemark>
	<name>1429</name>
	<Style><LineStyle><color>ff0000ff</color></LineStyle><PolyStyle><fill>0</fill></PolyStyle></Style>
      <Polygon><outerBoundaryIs><LinearRing><coordinates>18.4487691458036,-33.9275118192911 18.4487664635946,-33.9275229470296 18.4487932856847,-33.927529623672 18.4487986501028,-33.9275184959344 18.4487691458036,-33.9275118192911</coordinates></LinearRing></outerBoundaryIs></Polygon>
  </Placemark>
  <Placemark>
	<name>1432</name>
	<Style><LineStyle><color>ff0000ff</color></LineStyle><PolyStyle><fill>0</fill></PolyStyle></Style>
      <Polygon><outerBoundaryIs><LinearRing><coordinates>18.4483453567792,-33.927774433532 18.4483413334657,-33.9277900123174 18.4484365518858,-33.9278167188002 18.4484365518858,-33.9278011400196 18.4483453567792,-33.927774433532</coordinates></LinearRing></outerBoundaryIs></Polygon>
  </Placemark>
  <Placemark>
	<name>1845</name>
	<Style><LineStyle><color>ff0000ff</color></LineStyle><PolyStyle><fill>0</fill></PolyStyle></Style>
      <Polygon><outerBoundaryIs><LinearRing><coordinates>27.8953417646803,-26.2900491151936 27.8953310358442,-26.2901513178883 27.8953739511885,-26.2901573298087 27.8953819978155,-26.2900563295044 27.8953417646803,-26.2900491151936</coordinates></LinearRing></outerBoundaryIs></Polygon>
  </Placemark>
  <Placemark>
	<name>1846</name>
	<Style><LineStyle><color>ff0000ff</color></LineStyle><PolyStyle><fill>0</fill></PolyStyle></Style>
      <Polygon><outerBoundaryIs><LinearRing><coordinates>27.8949887599121,-26.2913484882469 27.8949887599121,-26.2913701309355 27.8950397218834,-26.2913737380499 27.8950383807788,-26.2913508929902 27.8949887599121,-26.2913484882469</coordinates></LinearRing></outerBoundaryIs></Polygon>
  </Placemark>
  <Placemark>
	<name>1918</name>
	<Style><LineStyle><color>ff0000ff</color></LineStyle><PolyStyle><fill>0</fill></PolyStyle></Style>
      <Polygon><outerBoundaryIs><LinearRing><coordinates>18.4307290918792,-34.1346148379882 18.4307398207152,-34.1346281587192 18.4307572550738,-34.1346192782321 18.4307465262378,-34.1346081776219 18.4307290918792,-34.1346148379882</coordinates></LinearRing></outerBoundaryIs></Polygon>
  </Placemark>
  <Placemark>
	<name>1959</name>
	<Style><LineStyle><color>ff0000ff</color></LineStyle><PolyStyle><fill>0</fill></PolyStyle></Style>
      <Polygon><outerBoundaryIs><LinearRing><coordinates>28.3150140614175,-26.190874568274 28.3150221080446,-26.1908950262682 28.3151065976285,-26.190858923923 28.3150918454789,-26.1908432795699 28.3150140614175,-26.190874568274</coordinates></LinearRing></outerBoundaryIs></Polygon>
  </Placemark>
  <Placemark>
	<name>2124</name>
	<Style><LineStyle><color>ff0000ff</color></LineStyle><PolyStyle><fill>0</fill></PolyStyle></Style>
      <Polygon><outerBoundaryIs><LinearRing><coordinates>27.2847568995003,-24.7854115366027 27.2847582406048,-24.7854224947111 27.2847783571724,-24.7854237122787 27.2847756749634,-24.7854127541703 27.2847568995003,-24.7854115366027</coordinates></LinearRing></outerBoundaryIs></Polygon>
  </Placemark>
  <Placemark>
	<name>2615</name>
	<Style><LineStyle><color>ff0000ff</color></LineStyle><PolyStyle><fill>0</fill></PolyStyle></Style>
      <Polygon><outerBoundaryIs><LinearRing><coordinates>29.9928726489429,-26.5136639669287 29.9928766722564,-26.5136855679665 29.9929383630637,-26.5136711672751 29.9929303164367,-26.5136495662347 29.9928726489429,-26.5136639669287</coordinates></LinearRing></outerBoundaryIs></Polygon>
  </Placemark>
  <Placemark>
	<name>2621</name>
	<Style><LineStyle><color>ff0000ff</color></LineStyle><PolyStyle><fill>0</fill></PolyStyle></Style>
      <Polygon><outerBoundaryIs><LinearRing><coordinates>29.9954742799974,-26.515840507721 29.9954796444154,-26.5158609083146 29.9955802272535,-26.515845307861 29.9955748628354,-26.5158237072295 29.9954742799974,-26.515840507721</coordinates></LinearRing></outerBoundaryIs></Polygon>
  </Placemark>
  <Placemark>
	<name>2622</name>
	<Style><LineStyle><color>ff0000ff</color></LineStyle><PolyStyle><fill>0</fill></PolyStyle></Style>
      <Polygon><outerBoundaryIs><LinearRing><coordinates>29.9922135924972,-26.5175012528282 29.9922162747062,-26.5175228531441 29.9922833299316,-26.5175096529515 29.992276624409,-26.5174892526509 29.9922135924972,-26.5175012528282</coordinates></LinearRing></outerBoundaryIs></Polygon>
  </Placemark>
  <Placemark>
	<name>2815</name>
	<Style><LineStyle><color>ff0000ff</color></LineStyle><PolyStyle><fill>0</fill></PolyStyle></Style>
      <Polygon><outerBoundaryIs><LinearRing><coordinates>28.3970006712229,-26.2915383911011 28.3970006712229,-26.2915600337543 28.3970717497618,-26.2915540219066 28.3970717497618,-26.2915347839919 28.3970006712229,-26.2915383911011</coordinates></LinearRing></outerBoundaryIs></Polygon>
  </Placemark>
  <Placemark>
	<name>3655</name>
	<Style><LineStyle><color>ff0000ff</color></LineStyle><PolyStyle><fill>0</fill></PolyStyle></Style>
      <Polygon><outerBoundaryIs><LinearRing><coordinates>29.4776436049176,-24.3116384135811 29.4776892024709,-24.3117789636183 29.4777267533971,-24.3117655197085 29.4776838380528,-24.3116274140064 29.4776436049176,-24.3116384135811</coordinates></LinearRing></outerBoundaryIs></Polygon>
  </Placemark>
  <Placemark>
	<name>3664</name>
	<Style><LineStyle><color>ff0000ff</color></LineStyle><PolyStyle><fill>0</fill></PolyStyle></Style>
      <Polygon><outerBoundaryIs><LinearRing><coordinates>29.4775926429463,-24.3112900932524 29.4776838380528,-24.3115663052407 29.4778501350118,-24.3115198625591 29.4777589399053,-24.3112363173971 29.4775926429463,-24.3112900932524</coordinates></LinearRing></outerBoundaryIs></Polygon>
  </Placemark>
  <Placemark>
	<name>3666</name>
	<Style><LineStyle><color>ff0000ff</color></LineStyle><PolyStyle><fill>0</fill></PolyStyle></Style>
      <Polygon><outerBoundaryIs><LinearRing><coordinates>29.4779677514808,-24.3151286907949 29.4780401711242,-24.3153474538949 29.4782239024417,-24.3152961240394 29.4781809870975,-24.3151653550279 29.4781608705298,-24.3151726878733 29.4781555061118,-24.3151531336181 29.4781260018127,-24.315164132887 29.4781219784991,-24.3151445786305 29.4780763809459,-24.3151555779002 29.4780643110053,-24.3151348015011 29.4780294422881,-24.3151458007716 29.4780240778701,-24.3151299129362 29.478010666825,-24.3151311350774 29.478005302407,-24.3151189136643 29.4779677514808,-24.3151286907949</coordinates></LinearRing></outerBoundaryIs></Polygon>
  </Placemark>
  <Placemark>
	<name>3673</name>
	<Style><LineStyle><color>ff0000ff</color></LineStyle><PolyStyle><fill>0</fill></PolyStyle></Style>
      <Polygon><outerBoundaryIs><LinearRing><coordinates>29.4787538225181,-24.3160051305542 29.4787766212947,-24.3160674593132 29.4787927145488,-24.3160637929165 29.4788034433849,-24.3160967904834 29.4787860090263,-24.316101679011 29.4788101489074,-24.3161750069038 29.4791065330036,-24.3160931240875 29.4790488655098,-24.3159232476281 29.4787538225181,-24.3160051305542</coordinates></LinearRing></outerBoundaryIs></Polygon>
  </Placemark>
  <Placemark>
	<name>3674</name>
	<Style><LineStyle><color>ff0000ff</color></LineStyle><PolyStyle><fill>0</fill></PolyStyle></Style>
      <Polygon><outerBoundaryIs><LinearRing><coordinates>29.479089098645,-24.3160295732085 29.4791078741081,-24.3160967904834 29.4791320139892,-24.3160931240875 29.4791051918991,-24.3160197961473 29.479089098645,-24.3160295732085</coordinates></LinearRing></outerBoundaryIs></Polygon>
  </Placemark>
  <Placemark>
	<name>3677</name>
	<Style><LineStyle><color>ff0000ff</color></LineStyle><PolyStyle><fill>0</fill></PolyStyle></Style>
      <Polygon><outerBoundaryIs><LinearRing><coordinates>29.4791427428253,-24.3161982273944 29.4791642004974,-24.3162642224495 29.4791829759605,-24.3162568896673 29.4791615182884,-24.3161945610014 29.4791427428253,-24.3161982273944</coordinates></LinearRing></outerBoundaryIs></Polygon>
  </Placemark>
  <Placemark>
	<name>3679</name>
	<Style><LineStyle><color>ff0000ff</color></LineStyle><PolyStyle><fill>0</fill></PolyStyle></Style>
      <Polygon><outerBoundaryIs><LinearRing><coordinates>29.4788181955345,-24.3169351702273 29.4789013440139,-24.3169156162439 29.4788208777435,-24.3166638584387 29.478740411473,-24.3166858567134 29.4788181955345,-24.3169351702273</coordinates></LinearRing></outerBoundaryIs></Polygon>
  </Placemark>
  <Placemark>
	<name>3682</name>
	<Style><LineStyle><color>ff0000ff</color></LineStyle><PolyStyle><fill>0</fill></PolyStyle></Style>
      <Polygon><outerBoundaryIs><LinearRing><coordinates>29.4790394777782,-24.3168789525169 29.479094463063,-24.3170476055731 29.4794136459358,-24.3169596127022 29.4793573195465,-24.3167885152785 29.4790394777782,-24.3168789525169</coordinates></LinearRing></outerBoundaryIs></Polygon>
  </Placemark>
  <Placemark>
	<name>3691</name>
	<Style><LineStyle><color>ff0000ff</color></LineStyle><PolyStyle><fill>0</fill></PolyStyle></Style>
      <Polygon><outerBoundaryIs><LinearRing><coordinates>29.4784753869744,-24.3146377037506 29.4784646581383,-24.3146535916478 29.4784941624375,-24.3146707016886 29.4785075734826,-24.314651147356 29.4784753869744,-24.3146377037506</coordinates></LinearRing></outerBoundaryIs></Polygon>
  </Placemark>
  <Placemark>
	<name>3694</name>
	<Style><LineStyle><color>ff0000ff</color></LineStyle><PolyStyle><fill>0</fill></PolyStyle></Style>
      <Polygon><outerBoundaryIs><LinearRing><coordinates>29.4789179514618,-24.3146450366265 29.4789045404168,-24.31466459096 29.4789957355233,-24.3147098103447 29.4790037821503,-24.314697588891 29.4789179514618,-24.3146450366265</coordinates></LinearRing></outerBoundaryIs></Polygon>
  </Placemark>
  <Placemark>
	<name>3696</name>
	<Style><LineStyle><color>ff0000ff</color></LineStyle><PolyStyle><fill>0</fill></PolyStyle></Style>
      <Polygon><outerBoundaryIs><LinearRing><coordinates>29.478865648386,-24.3147256982328 29.4788535784455,-24.3147391418288 29.478942091343,-24.3147855833316 29.4789541612835,-24.3147745840298 29.478865648386,-24.3147256982328</coordinates></LinearRing></outerBoundaryIs></Polygon>
  </Placemark>
  <Placemark>
	<name>3706</name>
	<Style><LineStyle><color>ff0000ff</color></LineStyle><PolyStyle><fill>0</fill></PolyStyle></Style>
      <Polygon><outerBoundaryIs><LinearRing><coordinates>29.4796532530377,-24.3200712796939 29.4796545941422,-24.3200847227232 29.4799643892834,-24.3200016203375 29.4799603659699,-24.3199869552049 29.4796532530377,-24.3200712796939</coordinates></LinearRing></outerBoundaryIs></Polygon>
  </Placemark>
  <Placemark>
	<name>3709</name>
	<Style><LineStyle><color>ff0000ff</color></LineStyle><PolyStyle><fill>0</fill></PolyStyle></Style>
      <Polygon><outerBoundaryIs><LinearRing><coordinates>29.4797645647118,-24.3201776017958 29.4797672469208,-24.3201910448138 29.4800073046276,-24.3201262738957 29.4800005991051,-24.3201128308708 29.4797645647118,-24.3201776017958</coordinates></LinearRing></outerBoundaryIs></Polygon>
  </Placemark>
  <Placemark>
	<name>3716</name>
	<Style><LineStyle><color>ff0000ff</color></LineStyle><PolyStyle><fill>0</fill></PolyStyle></Style>
      <Polygon><outerBoundaryIs><LinearRing><coordinates>18.4817604071722,-33.947654199145 18.4817684537992,-33.947673111825 18.4817872292623,-33.947668661783 18.4817778415308,-33.9476497491021 18.4817604071722,-33.947654199145</coordinates></LinearRing></outerBoundaryIs></Polygon>
  </Placemark>
  <Placemark>
	<name>3718</name>
	<Style><LineStyle><color>ff0000ff</color></LineStyle><PolyStyle><fill>0</fill></PolyStyle></Style>
      <Polygon><outerBoundaryIs><LinearRing><coordinates>18.4822002894506,-33.9468943509398 18.4822083360777,-33.9469054761454 18.4822378403769,-33.9468976885016 18.4822324759588,-33.9468854507742 18.4822002894506,-33.9468943509398</coordinates></LinearRing></outerBoundaryIs></Polygon>
  </Placemark>
  <Placemark>
	<name>3726</name>
	<Style><LineStyle><color>ff0000ff</color></LineStyle><PolyStyle><fill>0</fill></PolyStyle></Style>
      <Polygon><outerBoundaryIs><LinearRing><coordinates>27.8702913268426,-26.4661731063421 27.8702926679471,-26.4662223290286 27.8703329010823,-26.4662199279224 27.8703302188733,-26.4662067218376 27.8703087612012,-26.4662055212843 27.8703087612012,-26.4661743068957 27.8702913268426,-26.4661731063421</coordinates></LinearRing></outerBoundaryIs></Polygon>
  </Placemark>
  <Placemark>
	<name>3735</name>
	<Style><LineStyle><color>ff0000ff</color></LineStyle><PolyStyle><fill>0</fill></PolyStyle></Style>
      <Polygon><outerBoundaryIs><LinearRing><coordinates>27.8688523217061,-26.465715694517 27.8688550039151,-26.4657361040073 27.8688778026918,-26.4657325023328 27.8688737793782,-26.4657120928419 27.8688523217061,-26.465715694517</coordinates></LinearRing></outerBoundaryIs></Polygon>
  </Placemark>
  <Placemark>
	<name>3743</name>
	<Style><LineStyle><color>ff0000ff</color></LineStyle><PolyStyle><fill>0</fill></PolyStyle></Style>
      <Polygon><outerBoundaryIs><LinearRing><coordinates>25.4819217854376,-33.9418918755493 25.4819217854376,-33.9419285908801 25.4820223682756,-33.9419352663931 25.4820223682756,-33.9418974384792 25.4819217854376,-33.9418918755493</coordinates></LinearRing></outerBoundaryIs></Polygon>
  </Placemark>
  <Placemark>
	<name>3753</name>
	<Style><LineStyle><color>ff0000ff</color></LineStyle><PolyStyle><fill>0</fill></PolyStyle></Style>
      <Polygon><outerBoundaryIs><LinearRing><coordinates>28.1751148870627,-25.7039076980374 28.1751081815402,-25.7039342828077 28.1752101054827,-25.7039451583939 28.1752141287963,-25.7039209904233 28.1751148870627,-25.7039076980374</coordinates></LinearRing></outerBoundaryIs></Polygon>
  </Placemark>
  <Placemark>
	<name>3758</name>
	<Style><LineStyle><color>ff0000ff</color></LineStyle><PolyStyle><fill>0</fill></PolyStyle></Style>
      <Polygon><outerBoundaryIs><LinearRing><coordinates>28.1740709714087,-25.7024211603065 28.1740709714087,-25.702440494927 28.1740884057673,-25.702440494927 28.1740897468718,-25.7024187434787 28.1740709714087,-25.7024211603065</coordinates></LinearRing></outerBoundaryIs></Polygon>
  </Placemark>
  <Placemark>
	<name>3759</name>
	<Style><LineStyle><color>ff0000ff</color></LineStyle><PolyStyle><fill>0</fill></PolyStyle></Style>
      <Polygon><outerBoundaryIs><LinearRing><coordinates>28.1745564512404,-25.7024827893983 28.1745537690314,-25.7025009155957 28.1745913199576,-25.7025069576609 28.1745953432711,-25.7024876230512 28.1745564512404,-25.7024827893983</coordinates></LinearRing></outerBoundaryIs></Polygon>
  </Placemark>
  <Placemark>
	<name>3769</name>
	<Style><LineStyle><color>ff0000ff</color></LineStyle><PolyStyle><fill>0</fill></PolyStyle></Style>
      <Polygon><outerBoundaryIs><LinearRing><coordinates>28.1767461993088,-25.703457567628 28.1767461993088,-25.703475693677 28.1768105723252,-25.7034817356927 28.1768105723252,-25.7034636096446 28.1767461993088,-25.703457567628</coordinates></LinearRing></outerBoundaryIs></Polygon>
  </Placemark>
  <Placemark>
	<name>3796</name>
	<Style><LineStyle><color>ff0000ff</color></LineStyle><PolyStyle><fill>0</fill></PolyStyle></Style>
      <Polygon><outerBoundaryIs><LinearRing><coordinates>32.090266054905,-28.6037048165452 32.0902016818887,-28.6037754620462 32.0902767837411,-28.6038272687167 32.0903438389665,-28.6037566232506 32.090266054905,-28.6037048165452</coordinates></LinearRing></outerBoundaryIs></Polygon>
  </Placemark>
  <Placemark>
	<name>3803</name>
	<Style><LineStyle><color>ff0000ff</color></LineStyle><PolyStyle><fill>0</fill></PolyStyle></Style>
      <Polygon><outerBoundaryIs><LinearRing><coordinates>27.8447424038197,-26.2763710789611 27.8447571559693,-26.276381901703 27.8447719081189,-26.2763746865418 27.8447584970738,-26.2763626612721 27.8447424038197,-26.2763710789611</coordinates></LinearRing></outerBoundaryIs></Polygon>
  </Placemark>
  <Placemark>
	<name>3816</name>
	<Style><LineStyle><color>ff0000ff</color></LineStyle><PolyStyle><fill>0</fill></PolyStyle></Style>
      <Polygon><outerBoundaryIs><LinearRing><coordinates>27.9846229551659,-26.0414701555456 27.984636366211,-26.0414870248571 27.9846497772561,-26.0414773852508 27.9846350251065,-26.0414605159378 27.9846229551659,-26.0414701555456</coordinates></LinearRing></outerBoundaryIs></Polygon>
  </Placemark>
  <Placemark>
	<name>3823</name>
	<Style><LineStyle><color>ff0000ff</color></LineStyle><PolyStyle><fill>0</fill></PolyStyle></Style>
      <Polygon><outerBoundaryIs><LinearRing><coordinates>27.9855121944381,-26.0380253269185 27.985509512229,-26.0380867812042 27.9855631564093,-26.0380867812042 27.9855618153048,-26.0380578615443 27.9855953429175,-26.0380590665303 27.985599366231,-26.0380253269185 27.9855121944381,-26.0380253269185</coordinates></LinearRing></outerBoundaryIs></Polygon>
  </Placemark>
  <Placemark>
	<name>3826</name>
	<Style><LineStyle><color>ff0000ff</color></LineStyle><PolyStyle><fill>0</fill></PolyStyle></Style>
      <Polygon><outerBoundaryIs><LinearRing><coordinates>27.986299103866,-26.0412423543559 27.986312514911,-26.0412580187472 27.9863661590913,-26.0412206651954 27.9863527480463,-26.0412013859381 27.986299103866,-26.0412423543559</coordinates></LinearRing></outerBoundaryIs></Polygon>
  </Placemark>
  <Placemark>
	<name>3835</name>
	<Style><LineStyle><color>ff0000ff</color></LineStyle><PolyStyle><fill>0</fill></PolyStyle></Style>
      <Polygon><outerBoundaryIs><LinearRing><coordinates>27.9871012345166,-26.0382042555098 27.9871039167256,-26.0382247402441 27.9871776774735,-26.0382187153226 27.98717365416,-26.0381946156337 27.9871012345166,-26.0382042555098</coordinates></LinearRing></outerBoundaryIs></Polygon>
  </Placemark>
  <Placemark>
	<name>3836</name>
	<Style><LineStyle><color>ff0000ff</color></LineStyle><PolyStyle><fill>0</fill></PolyStyle></Style>
      <Polygon><outerBoundaryIs><LinearRing><coordinates>27.9870610013814,-26.0370293897649 27.9870462492318,-26.0370462597153 27.9870958700986,-26.0370884345807 27.9871079400391,-26.0370739746285 27.9870610013814,-26.0370293897649</coordinates></LinearRing></outerBoundaryIs></Polygon>
  </Placemark>
  <Placemark>
	<name>3858</name>
	<Style><LineStyle><color>ff0000ff</color></LineStyle><PolyStyle><fill>0</fill></PolyStyle></Style>
      <Polygon><outerBoundaryIs><LinearRing><coordinates>27.9881948029441,-26.0319215209099 27.9881948029441,-26.031944416839 27.9882149195117,-26.0319456218878 27.9882135784072,-26.0319203158608 27.9881948029441,-26.0319215209099</coordinates></LinearRing></outerBoundaryIs></Polygon>
  </Placemark>
  <Placemark>
	<name>3871</name>
	<Style><LineStyle><color>ff0000ff</color></LineStyle><PolyStyle><fill>0</fill></PolyStyle></Style>
      <Polygon><outerBoundaryIs><LinearRing><coordinates>27.9895100793326,-26.0279282258539 27.9895073971235,-26.0279547378317 27.9896254143202,-26.0279716090872 27.9896280965292,-26.0279487123827 27.9895100793326,-26.0279282258539</coordinates></LinearRing></outerBoundaryIs></Polygon>
  </Placemark>
  <Placemark>
	<name>3875</name>
	<Style><LineStyle><color>ff0000ff</color></LineStyle><PolyStyle><fill>0</fill></PolyStyle></Style>
      <Polygon><outerBoundaryIs><LinearRing><coordinates>27.9895485963735,-26.0266565027104 27.9895620074186,-26.0266962711059 27.989629062644,-26.0266745792554 27.9896156515989,-26.0266360159559 27.9895485963735,-26.0266565027104</coordinates></LinearRing></outerBoundaryIs></Polygon>
  </Placemark>
  <Placemark>
	<name>3878</name>
	<Style><LineStyle><color>ff0000ff</color></LineStyle><PolyStyle><fill>0</fill></PolyStyle></Style>
      <Polygon><outerBoundaryIs><LinearRing><coordinates>27.9891191894417,-26.0272549818581 27.9891218716508,-26.0272778786979 27.9891929501897,-26.0272622124396 27.9891808802491,-26.0272236493332 27.989156740368,-26.0272296748194 27.989162104786,-26.0272453410821 27.9891191894417,-26.0272549818581</coordinates></LinearRing></outerBoundaryIs></Polygon>
  </Placemark>
  <Placemark>
	<name>3885</name>
	<Style><LineStyle><color>ff0000ff</color></LineStyle><PolyStyle><fill>0</fill></PolyStyle></Style>
      <Polygon><outerBoundaryIs><LinearRing><coordinates>27.9882595414525,-26.0280214210163 27.9882649058705,-26.0280503431506 27.9883105034238,-26.0280394973511 27.9883037979012,-26.028010575214 27.9882595414525,-26.0280214210163</coordinates></LinearRing></outerBoundaryIs></Polygon>
  </Placemark>
  <Placemark>
	<name>3893</name>
	<Style><LineStyle><color>ff0000ff</color></LineStyle><PolyStyle><fill>0</fill></PolyStyle></Style>
      <Polygon><outerBoundaryIs><LinearRing><coordinates>27.9875854755138,-26.0271658046497 27.9876029098724,-26.0271971371901 27.9876565540527,-26.0271766505301 27.9876404607986,-26.0271477281803 27.9875854755138,-26.0271658046497</coordinates></LinearRing></outerBoundaryIs></Polygon>
  </Placemark>
  <Placemark>
	<name>3894</name>
	<Style><LineStyle><color>ff0000ff</color></LineStyle><PolyStyle><fill>0</fill></PolyStyle></Style>
      <Polygon><outerBoundaryIs><LinearRing><coordinates>27.9897099250461,-26.0261344072872 27.9897179716731,-26.026158509454 27.9897742980624,-26.0261428430462 27.9897622281218,-26.0261187408762 27.9897099250461,-26.0261344072872</coordinates></LinearRing></outerBoundaryIs></Polygon>
  </Placemark>
  <Placemark>
	<name>3899</name>
	<Style><LineStyle><color>ff0000ff</color></LineStyle><PolyStyle><fill>0</fill></PolyStyle></Style>
      <Polygon><outerBoundaryIs><LinearRing><coordinates>27.9857201119902,-26.0269426762606 27.9857469340804,-26.0269993159544 27.9857925316336,-26.0269884700577 27.9857683917525,-26.0269282150578 27.9857201119902,-26.0269426762606</coordinates></LinearRing></outerBoundaryIs></Polygon>
  </Placemark>
  <Placemark>
	<name>3906</name>
	<Style><LineStyle><color>ff0000ff</color></LineStyle><PolyStyle><fill>0</fill></PolyStyle></Style>
      <Polygon><outerBoundaryIs><LinearRing><coordinates>27.9839498540404,-26.0276082635362 27.983959241772,-26.0276323654002 27.9839874049666,-26.0276251348416 27.9839927693846,-26.0276456214233 27.9840249558928,-26.0276371857724 27.9840088626387,-26.0275938024155 27.9839498540404,-26.0276082635362</coordinates></LinearRing></outerBoundaryIs></Polygon>
  </Placemark>
  <Placemark>
	<name>3911</name>
	<Style><LineStyle><color>ff0000ff</color></LineStyle><PolyStyle><fill>0</fill></PolyStyle></Style>
      <Polygon><outerBoundaryIs><LinearRing><coordinates>27.9843585158546,-26.0281412457267 27.9843692446907,-26.028171372919 27.9843907023628,-26.0281665525688 27.9843772913177,-26.0281352202873 27.9843585158546,-26.0281412457267</coordinates></LinearRing></outerBoundaryIs></Polygon>
  </Placemark>
  <Placemark>
	<name>3914</name>
	<Style><LineStyle><color>ff0000ff</color></LineStyle><PolyStyle><fill>0</fill></PolyStyle></Style>
      <Polygon><outerBoundaryIs><LinearRing><coordinates>27.9850217040137,-26.0279960819023 27.9850324328498,-26.0280527210876 27.9851263101653,-26.0280346447548 27.9851128991203,-26.0279780055608 27.9850217040137,-26.0279960819023</coordinates></LinearRing></outerBoundaryIs></Polygon>
  </Placemark>
  <Placemark>
	<name>3919</name>
	<Style><LineStyle><color>ff0000ff</color></LineStyle><PolyStyle><fill>0</fill></PolyStyle></Style>
      <Polygon><outerBoundaryIs><LinearRing><coordinates>27.9853328402595,-26.0278261641823 27.9853194292144,-26.0278454456381 27.9853770967082,-26.0278731627252 27.9853891666488,-26.0278574965463 27.9853328402595,-26.0278261641823</coordinates></LinearRing></outerBoundaryIs></Polygon>
  </Placemark>
  <Placemark>
	<name>3922</name>
	<Style><LineStyle><color>ff0000ff</color></LineStyle><PolyStyle><fill>0</fill></PolyStyle></Style>
      <Polygon><outerBoundaryIs><LinearRing><coordinates>27.9860806995988,-26.0279723099338 27.9860941106438,-26.0279807455606 27.9861048394799,-26.0279662844857 27.9860941106438,-26.0279590539476 27.9860806995988,-26.0279723099338</coordinates></LinearRing></outerBoundaryIs></Polygon>
  </Placemark>
  <Placemark>
	<name>3933</name>
	<Style><LineStyle><color>ff0000ff</color></LineStyle><PolyStyle><fill>0</fill></PolyStyle></Style>
      <Polygon><outerBoundaryIs><LinearRing><coordinates>27.9867622508241,-26.0290191276788 27.9867528630925,-26.0290396140172 27.9868118716908,-26.0290576901951 27.9868226005269,-26.0290396140172 27.9867622508241,-26.0290191276788</coordinates></LinearRing></outerBoundaryIs></Polygon>
  </Placemark>
  <Placemark>
	<name>3940</name>
	<Style><LineStyle><color>ff0000ff</color></LineStyle><PolyStyle><fill>0</fill></PolyStyle></Style>
      <Polygon><outerBoundaryIs><LinearRing><coordinates>27.985886076987,-26.0296770519723 27.9858766892554,-26.0296903077643 27.985896805823,-26.0297023584831 27.9859075346591,-26.0296878976204 27.985886076987,-26.0296770519723</coordinates></LinearRing></outerBoundaryIs></Polygon>
  </Placemark>
  <Placemark>
	<name>3941</name>
	<Style><LineStyle><color>ff0000ff</color></LineStyle><PolyStyle><fill>0</fill></PolyStyle></Style>
      <Polygon><outerBoundaryIs><LinearRing><coordinates>27.9852872616217,-26.0304060965522 27.9852899438307,-26.0304506839334 27.9853502935335,-26.0304458636768 27.9853476113245,-26.030403686423 27.9852872616217,-26.0304060965522</coordinates></LinearRing></outerBoundaryIs></Polygon>
  </Placemark>
  <Placemark>
	<name>3942</name>
	<Style><LineStyle><color>ff0000ff</color></LineStyle><PolyStyle><fill>0</fill></PolyStyle></Style>
      <Polygon><outerBoundaryIs><LinearRing><coordinates>27.9871527379915,-26.030670812394 27.98714335026,-26.030691298444 27.987243933098,-26.030737090778 27.9872533208296,-26.030716604736 27.9871527379915,-26.030670812394</coordinates></LinearRing></outerBoundaryIs></Polygon>
  </Placemark>
  <Placemark>
	<name>3945</name>
	<Style><LineStyle><color>ff0000ff</color></LineStyle><PolyStyle><fill>0</fill></PolyStyle></Style>
      <Polygon><outerBoundaryIs><LinearRing><coordinates>27.9840629992383,-26.0300412332334 27.9840629992383,-26.0300617193932 27.9841193256277,-26.0300568991207 27.9841220078367,-26.030025567344 27.9840817747014,-26.0300219521384 27.9840817747014,-26.03004364337 27.9840629992383,-26.0300412332334</coordinates></LinearRing></outerBoundaryIs></Polygon>
  </Placemark>
  <Placemark>
	<name>3987</name>
	<Style><LineStyle><color>ff0000ff</color></LineStyle><PolyStyle><fill>0</fill></PolyStyle></Style>
      <Polygon><outerBoundaryIs><LinearRing><coordinates>27.8087022154818,-26.2774746783244 27.8086981921682,-26.2774963236015 27.808739766408,-26.277498728632 27.808742448617,-26.2774794883863 27.8087022154818,-26.2774746783244</coordinates></LinearRing></outerBoundaryIs></Polygon>
  </Placemark>
  <Placemark>
	<name>3993</name>
	<Style><LineStyle><color>ff0000ff</color></LineStyle><PolyStyle><fill>0</fill></PolyStyle></Style>
      <Polygon><outerBoundaryIs><LinearRing><coordinates>28.3271133309094,-26.5548405552587 28.3271026020734,-26.554851351903 28.327128083059,-26.5548705459348 28.3271388118951,-26.5548621485462 28.3271133309094,-26.5548405552587</coordinates></LinearRing></outerBoundaryIs></Polygon>
  </Placemark>
  <Placemark>
	<name>3999</name>
	<Style><LineStyle><color>ff0000ff</color></LineStyle><PolyStyle><fill>0</fill></PolyStyle></Style>
      <Polygon><outerBoundaryIs><LinearRing><coordinates>28.2958379217649,-26.1575458534032 28.295848650601,-26.1575663172473 28.2958701082731,-26.157557890959 28.2958607205416,-26.1575398346248 28.2958379217649,-26.1575458534032</coordinates></LinearRing></outerBoundaryIs></Polygon>
  </Placemark>
  <Placemark>
	<name>4000</name>
	<Style><LineStyle><color>ff0000ff</color></LineStyle><PolyStyle><fill>0</fill></PolyStyle></Style>
      <Polygon><outerBoundaryIs><LinearRing><coordinates>28.2958271929289,-26.1575229820437 28.2958365806604,-26.1575446496475 28.2958620616461,-26.1575350196019 28.295848650601,-26.1575169632642 28.2958271929289,-26.1575229820437</coordinates></LinearRing></outerBoundaryIs></Polygon>
  </Placemark>
  <Placemark>
	<name>4004</name>
	<Style><LineStyle><color>ff0000ff</color></LineStyle><PolyStyle><fill>0</fill></PolyStyle></Style>
      <Polygon><outerBoundaryIs><LinearRing><coordinates>28.29439174092,-26.1581779640804 28.2943877176064,-26.1582092615533 28.2944373384732,-26.1582164840459 28.2944386795777,-26.1581851865749 28.29439174092,-26.1581779640804</coordinates></LinearRing></outerBoundaryIs></Polygon>
  </Placemark>
  <Placemark>
	<name>4016</name>
	<Style><LineStyle><color>ff0000ff</color></LineStyle><PolyStyle><fill>0</fill></PolyStyle></Style>
      <Polygon><outerBoundaryIs><LinearRing><coordinates>28.2950006023664,-26.1577072972249 28.2950126723069,-26.1577265572869 28.2950488821286,-26.1577109084868 28.2950381532926,-26.1576928521763 28.2950006023664,-26.1577072972249</coordinates></LinearRing></outerBoundaryIs></Polygon>
  </Placemark>
  <Placemark>
	<name>4017</name>
	<Style><LineStyle><color>ff0000ff</color></LineStyle><PolyStyle><fill>0</fill></PolyStyle></Style>
      <Polygon><outerBoundaryIs><LinearRing><coordinates>28.2958257425469,-26.1573353366531 28.2958378124875,-26.1573545967765 28.2958512235326,-26.1573485779883 28.295839153592,-26.1573317253795 28.2958257425469,-26.1573353366531</coordinates></LinearRing></outerBoundaryIs></Polygon>
  </Placemark>
  <Placemark>
	<name>4022</name>
	<Style><LineStyle><color>ff0000ff</color></LineStyle><PolyStyle><fill>0</fill></PolyStyle></Style>
      <Polygon><outerBoundaryIs><LinearRing><coordinates>28.2963021389867,-26.1571746904104 28.2963289610769,-26.1572336746097 28.296342372122,-26.1572252482973 28.2963155500318,-26.1571674678534 28.2963021389867,-26.1571746904104</coordinates></LinearRing></outerBoundaryIs></Polygon>
  </Placemark>
  <Placemark>
	<name>4032</name>
	<Style><LineStyle><color>ff0000ff</color></LineStyle><PolyStyle><fill>0</fill></PolyStyle></Style>
      <Polygon><outerBoundaryIs><LinearRing><coordinates>28.2966388984331,-26.1564293648948 28.2966442628511,-26.1564498289348 28.2966871781953,-26.1564450138669 28.2966791315683,-26.1564269573605 28.2966388984331,-26.1564293648948</coordinates></LinearRing></outerBoundaryIs></Polygon>
  </Placemark>
  <Placemark>
	<name>4036</name>
	<Style><LineStyle><color>ff0000ff</color></LineStyle><PolyStyle><fill>0</fill></PolyStyle></Style>
      <Polygon><outerBoundaryIs><LinearRing><coordinates>28.2960474713453,-26.1561700514672 28.2960555179723,-26.1561917193223 28.2961037977346,-26.1561748665465 28.296091727794,-26.1561568099983 28.2960474713453,-26.1561700514672</coordinates></LinearRing></outerBoundaryIs></Polygon>
  </Placemark>
  <Placemark>
	<name>4053</name>
	<Style><LineStyle><color>ff0000ff</color></LineStyle><PolyStyle><fill>0</fill></PolyStyle></Style>
      <Polygon><outerBoundaryIs><LinearRing><coordinates>28.2944538987685,-26.1570911492845 28.2944619453955,-26.1571128169685 28.2945182717848,-26.1570887417638 28.2945048607398,-26.1570670740753 28.2944538987685,-26.1570911492845</coordinates></LinearRing></outerBoundaryIs></Polygon>
  </Placemark>
  <Placemark>
	<name>4060</name>
	<Style><LineStyle><color>ff0000ff</color></LineStyle><PolyStyle><fill>0</fill></PolyStyle></Style>
      <Polygon><outerBoundaryIs><LinearRing><coordinates>28.2945652104426,-26.1572608793682 28.2945745981741,-26.1572813432623 28.294629583459,-26.1572620831268 28.2946175135184,-26.1572404154705 28.2945652104426,-26.1572608793682</coordinates></LinearRing></outerBoundaryIs></Polygon>
  </Placemark>
  <Placemark>
	<name>4065</name>
	<Style><LineStyle><color>ff0000ff</color></LineStyle><PolyStyle><fill>0</fill></PolyStyle></Style>
      <Polygon><outerBoundaryIs><LinearRing><coordinates>28.2953758840586,-26.1570376035321 28.2953879539992,-26.1570532524226 28.2954295282389,-26.1570327884885 28.2954161171938,-26.1570135283119 28.2953758840586,-26.1570376035321</coordinates></LinearRing></outerBoundaryIs></Polygon>
  </Placemark>
  <Placemark>
	<name>4069</name>
	<Style><LineStyle><color>ff0000ff</color></LineStyle><PolyStyle><fill>0</fill></PolyStyle></Style>
      <Polygon><outerBoundaryIs><LinearRing><coordinates>28.2955113356138,-26.1568979671857 28.2955368165995,-26.1569364875738 28.2955824141527,-26.1569172273813 28.2955609564806,-26.1568787069868 28.2955113356138,-26.1568979671857</coordinates></LinearRing></outerBoundaryIs></Polygon>
  </Placemark>
  <Placemark>
	<name>4073</name>
	<Style><LineStyle><color>ff0000ff</color></LineStyle><PolyStyle><fill>0</fill></PolyStyle></Style>
      <Polygon><outerBoundaryIs><LinearRing><coordinates>28.2960142498041,-26.1569521364779 28.2960129086996,-26.1569738041877 28.2960571651484,-26.1569858418025 28.2960585062529,-26.1569641740949 28.2960142498041,-26.1569521364779</coordinates></LinearRing></outerBoundaryIs></Polygon>
  </Placemark>
  <Placemark>
	<name>4076</name>
	<Style><LineStyle><color>ff0000ff</color></LineStyle><PolyStyle><fill>0</fill></PolyStyle></Style>
      <Polygon><outerBoundaryIs><LinearRing><coordinates>28.2959632878329,-26.1568883370866 28.2959606056238,-26.1569075972839 28.2959860866095,-26.1569124123327 28.295990109923,-26.1568943558986 28.2959632878329,-26.1568883370866</coordinates></LinearRing></outerBoundaryIs></Polygon>
  </Placemark>
  <Placemark>
	<name>4085</name>
	<Style><LineStyle><color>ff0000ff</color></LineStyle><PolyStyle><fill>0</fill></PolyStyle></Style>
      <Polygon><outerBoundaryIs><LinearRing><coordinates>28.2969078801814,-26.1552386779947 28.2969119034949,-26.155256734685 28.2969548188392,-26.1552579384643 28.2969548188392,-26.1552398817741 28.2969078801814,-26.1552386779947</coordinates></LinearRing></outerBoundaryIs></Polygon>
  </Placemark>
  <Placemark>
	<name>4106</name>
	<Style><LineStyle><color>ff0000ff</color></LineStyle><PolyStyle><fill>0</fill></PolyStyle></Style>
      <Polygon><outerBoundaryIs><LinearRing><coordinates>18.6898376654872,-33.9304080238827 18.6898269366512,-33.9304236021865 18.6898913096675,-33.9304725625511 18.6899060618171,-33.9304625479334 18.6898376654872,-33.9304080238827</coordinates></LinearRing></outerBoundaryIs></Polygon>
  </Placemark>
  <Placemark>
	<name>4107</name>
	<Style><LineStyle><color>ff0000ff</color></LineStyle><PolyStyle><fill>0</fill></PolyStyle></Style>
      <Polygon><outerBoundaryIs><LinearRing><coordinates>18.6899449538478,-33.9304669988747 18.6899342250118,-33.9304792389623 18.689969093729,-33.9305014936625 18.689979822565,-33.9304914790481 18.6899449538478,-33.9304669988747</coordinates></LinearRing></outerBoundaryIs></Polygon>
  </Placemark>
  <Placemark>
	<name>4108</name>
	<Style><LineStyle><color>ff0000ff</color></LineStyle><PolyStyle><fill>0</fill></PolyStyle></Style>
      <Polygon><outerBoundaryIs><LinearRing><coordinates>18.6899315428027,-33.9304814644326 18.6899221550712,-33.9304925917831 18.6899530004749,-33.9305170719491 18.6899664115199,-33.9305059446018 18.6899315428027,-33.9304814644326</coordinates></LinearRing></outerBoundaryIs></Polygon>
  </Placemark>
  <Placemark>
	<name>4110</name>
	<Style><LineStyle><color>ff0000ff</color></LineStyle><PolyStyle><fill>0</fill></PolyStyle></Style>
      <Polygon><outerBoundaryIs><LinearRing><coordinates>18.6926522882856,-33.9319953088037 18.6926549704946,-33.9320119995323 18.6927421422876,-33.9320164503927 18.6927434833921,-33.9319986469497 18.6926522882856,-33.9319953088037</coordinates></LinearRing></outerBoundaryIs></Polygon>
  </Placemark>
  <Placemark>
	<name>4114</name>
	<Style><LineStyle><color>ff0000ff</color></LineStyle><PolyStyle><fill>0</fill></PolyStyle></Style>
      <Polygon><outerBoundaryIs><LinearRing><coordinates>18.6888035895972,-33.9316036238028 18.6888035895972,-33.9316225400485 18.6888384583144,-33.9316225400485 18.6888357761054,-33.9316002856413 18.6888035895972,-33.9316036238028</coordinates></LinearRing></outerBoundaryIs></Polygon>
  </Placemark>
  <Placemark>
	<name>4118</name>
	<Style><LineStyle><color>ff0000ff</color></LineStyle><PolyStyle><fill>0</fill></PolyStyle></Style>
      <Polygon><outerBoundaryIs><LinearRing><coordinates>18.6897446288915,-33.9317961242253 18.6897339000555,-33.9318239421695 18.6897996141763,-33.931841745649 18.6898076608034,-33.9318183785814 18.6897446288915,-33.9317961242253</coordinates></LinearRing></outerBoundaryIs></Polygon>
  </Placemark>
  <Placemark>
	<name>4123</name>
	<Style><LineStyle><color>ff0000ff</color></LineStyle><PolyStyle><fill>0</fill></PolyStyle></Style>
      <Polygon><outerBoundaryIs><LinearRing><coordinates>18.6894442214819,-33.931486788074 18.689473725781,-33.931499028015 18.6894831135126,-33.9314712099647 18.6894576325269,-33.9314578572973 18.6894442214819,-33.931486788074</coordinates></LinearRing></outerBoundaryIs></Polygon>
  </Placemark>
  <Placemark>
	<name>4126</name>
	<Style><LineStyle><color>ff0000ff</color></LineStyle><PolyStyle><fill>0</fill></PolyStyle></Style>
      <Polygon><outerBoundaryIs><LinearRing><coordinates>18.691355295405,-33.9321833491909 18.6913324966283,-33.9322456610899 18.6913512720914,-33.9322523373621 18.6913794352861,-33.932190025468 18.691355295405,-33.9321833491909</coordinates></LinearRing></outerBoundaryIs></Polygon>
  </Placemark>
  <Placemark>
	<name>4129</name>
	<Style><LineStyle><color>ff0000ff</color></LineStyle><PolyStyle><fill>0</fill></PolyStyle></Style>
      <Polygon><outerBoundaryIs><LinearRing><coordinates>18.691635586247,-33.9322935076957 18.6916288807245,-33.9323146492106 18.6916637494417,-33.9323257763216 18.6916731371732,-33.9323057475207 18.691635586247,-33.9322935076957</coordinates></LinearRing></outerBoundaryIs></Polygon>
  </Placemark>
  <Placemark>
	<name>4135</name>
	<Style><LineStyle><color>ff0000ff</color></LineStyle><PolyStyle><fill>0</fill></PolyStyle></Style>
      <Polygon><outerBoundaryIs><LinearRing><coordinates>28.0184656928408,-26.0044010730788 28.0184777627814,-26.0044119210625 28.0185099492896,-26.0043781717765 28.018497879349,-26.0043673237896 28.0184656928408,-26.0044010730788</coordinates></LinearRing></outerBoundaryIs></Polygon>
  </Placemark>
  <Placemark>
	<name>4140</name>
	<Style><LineStyle><color>ff0000ff</color></LineStyle><PolyStyle><fill>0</fill></PolyStyle></Style>
      <Polygon><outerBoundaryIs><LinearRing><coordinates>28.0183449934352,-26.0051869466427 28.0183543811667,-26.0052038211708 28.0184120486605,-26.0051724827596 28.018402660929,-26.0051544029032 28.0183449934352,-26.0051869466427</coordinates></LinearRing></outerBoundaryIs></Polygon>
  </Placemark>
  <Placemark>
	<name>4153</name>
	<Style><LineStyle><color>ff0000ff</color></LineStyle><PolyStyle><fill>0</fill></PolyStyle></Style>
      <Polygon><outerBoundaryIs><LinearRing><coordinates>28.0189439257624,-26.005504764209 28.0189573368074,-26.0055216386914 28.0190082987787,-26.0054746311987 28.0189962288382,-26.0054589620302 28.0189439257624,-26.005504764209</coordinates></LinearRing></outerBoundaryIs></Polygon>
  </Placemark>
  <Placemark>
	<name>4156</name>
	<Style><LineStyle><color>ff0000ff</color></LineStyle><PolyStyle><fill>0</fill></PolyStyle></Style>
      <Polygon><outerBoundaryIs><LinearRing><coordinates>28.0192456742765,-26.0053215553869 28.0192738374712,-26.0053408405395 28.0193060239794,-26.0053046808757 28.0192818840982,-26.0052902170071 28.0192456742765,-26.0053215553869</coordinates></LinearRing></outerBoundaryIs></Polygon>
  </Placemark>
  <Placemark>
	<name>4163</name>
	<Style><LineStyle><color>ff0000ff</color></LineStyle><PolyStyle><fill>0</fill></PolyStyle></Style>
      <Polygon><outerBoundaryIs><LinearRing><coordinates>28.0173564640393,-26.006130769955 28.0173564640393,-26.0061452337202 28.0174181548466,-26.0061404124653 28.0174154726376,-26.0061295646412 28.0173564640393,-26.006130769955</coordinates></LinearRing></outerBoundaryIs></Polygon>
  </Placemark>
  <Placemark>
	<name>4182</name>
	<Style><LineStyle><color>ff0000ff</color></LineStyle><PolyStyle><fill>0</fill></PolyStyle></Style>
      <Polygon><outerBoundaryIs><LinearRing><coordinates>28.016589387401,-26.0058082316101 28.0165934107145,-26.0058287219998 28.0166416904768,-26.005822695415 28.0166376671632,-26.0057973837553 28.016589387401,-26.0058082316101</coordinates></LinearRing></outerBoundaryIs></Polygon>
  </Placemark>
  <Placemark>
	<name>4196</name>
	<Style><LineStyle><color>ff0000ff</color></LineStyle><PolyStyle><fill>0</fill></PolyStyle></Style>
      <Polygon><outerBoundaryIs><LinearRing><coordinates>28.0158708738438,-26.0059200278886 28.0158842848889,-26.005939312943 28.0159070836655,-26.0059296704162 28.0158976959339,-26.0059103853603 28.0158708738438,-26.0059200278886</coordinates></LinearRing></outerBoundaryIs></Polygon>
  </Placemark>
  <Placemark>
	<name>4209</name>
	<Style><LineStyle><color>ff0000ff</color></LineStyle><PolyStyle><fill>0</fill></PolyStyle></Style>
      <Polygon><outerBoundaryIs><LinearRing><coordinates>28.0156506537344,-26.0061622273901 28.015662723675,-26.0061815124047 28.0156841813471,-26.0061706645844 28.015668088093,-26.0061501742544 28.0156506537344,-26.0061622273901</coordinates></LinearRing></outerBoundaryIs></Polygon>
  </Placemark>
  <Placemark>
	<name>4213</name>
	<Style><LineStyle><color>ff0000ff</color></LineStyle><PolyStyle><fill>0</fill></PolyStyle></Style>
      <Polygon><outerBoundaryIs><LinearRing><coordinates>28.0154173015501,-26.0062369568039 28.0154266892817,-26.0062550364937 28.0154736279394,-26.0062309302401 28.0154655813124,-26.0062140558596 28.0154173015501,-26.0062369568039</coordinates></LinearRing></outerBoundaryIs></Polygon>
  </Placemark>
  <Placemark>
	<name>4236</name>
	<Style><LineStyle><color>ff0000ff</color></LineStyle><PolyStyle><fill>0</fill></PolyStyle></Style>
      <Polygon><outerBoundaryIs><LinearRing><coordinates>28.11501576804,-25.6758901101022 28.11501576804,-25.6759118663956 28.1150560011753,-25.6759106577127 28.1150586833843,-25.6758901101022 28.11501576804,-25.6758901101022</coordinates></LinearRing></outerBoundaryIs></Polygon>
  </Placemark>
  <Placemark>
	<name>4239</name>
	<Style><LineStyle><color>ff0000ff</color></LineStyle><PolyStyle><fill>0</fill></PolyStyle></Style>
      <Polygon><outerBoundaryIs><LinearRing><coordinates>28.1149916281589,-25.6777345462032 28.1149969925769,-25.677750258839 28.1150372257122,-25.677736963532 28.1150358846077,-25.6777200422299 28.1149916281589,-25.6777345462032</coordinates></LinearRing></outerBoundaryIs></Polygon>
  </Placemark>
  <Placemark>
	<name>4241</name>
	<Style><LineStyle><color>ff0000ff</color></LineStyle><PolyStyle><fill>0</fill></PolyStyle></Style>
      <Polygon><outerBoundaryIs><LinearRing><coordinates>28.1144190907304,-25.6773634342045 28.1144097029989,-25.6774057375817 28.114441889507,-25.6774057375817 28.1144539594476,-25.6773658515408 28.1144190907304,-25.6773634342045</coordinates></LinearRing></outerBoundaryIs></Polygon>
  </Placemark>
  <Placemark>
	<name>4246</name>
	<Style><LineStyle><color>ff0000ff</color></LineStyle><PolyStyle><fill>0</fill></PolyStyle></Style>
      <Polygon><outerBoundaryIs><LinearRing><coordinates>28.1120733282038,-25.6778090693178 28.1120719870993,-25.6778465378839 28.1121175846526,-25.6778465378839 28.1121162435481,-25.6778090693178 28.1120733282038,-25.6778090693178</coordinates></LinearRing></outerBoundaryIs></Polygon>
  </Placemark>
  <Placemark>
	<name>4254</name>
	<Style><LineStyle><color>ff0000ff</color></LineStyle><PolyStyle><fill>0</fill></PolyStyle></Style>
      <Polygon><outerBoundaryIs><LinearRing><coordinates>28.1106302997538,-25.6778531831207 28.1106262764403,-25.6778688957408 28.1106383463809,-25.6778725217297 28.1106437107989,-25.6778519744575 28.1106302997538,-25.6778531831207</coordinates></LinearRing></outerBoundaryIs></Polygon>
  </Placemark>
  <Placemark>
	<name>4285</name>
	<Style><LineStyle><color>ff0000ff</color></LineStyle><PolyStyle><fill>0</fill></PolyStyle></Style>
      <Polygon><outerBoundaryIs><LinearRing><coordinates>27.9927233261659,-26.1980671656938 27.9927367372109,-26.1980804024025 27.9927702648236,-26.1980491156342 27.9927568537785,-26.1980370822595 27.9927233261659,-26.1980671656938</coordinates></LinearRing></outerBoundaryIs></Polygon>
  </Placemark>
  <Placemark>
	<name>4286</name>
	<Style><LineStyle><color>ff0000ff</color></LineStyle><PolyStyle><fill>0</fill></PolyStyle></Style>
      <Polygon><outerBoundaryIs><LinearRing><coordinates>27.9928198856904,-26.1980491156342 27.9928064746453,-26.1980599456703 27.9928386611535,-26.1980900290987 27.9928520721986,-26.1980779957283 27.9928198856904,-26.1980491156342</coordinates></LinearRing></outerBoundaryIs></Polygon>
  </Placemark>
  <Placemark>
	<name>4297</name>
	<Style><LineStyle><color>ff0000ff</color></LineStyle><PolyStyle><fill>0</fill></PolyStyle></Style>
      <Polygon><outerBoundaryIs><LinearRing><coordinates>28.2525743931959,-25.7198972711885 28.2525918275545,-25.7198948547156 28.2525676876733,-25.7198151110839 28.2525515944193,-25.7198199440328 28.2525743931959,-25.7198972711885</coordinates></LinearRing></outerBoundaryIs></Polygon>
  </Placemark>
  <Placemark>
	<name>4318</name>
	<Style><LineStyle><color>ff0000ff</color></LineStyle><PolyStyle><fill>0</fill></PolyStyle></Style>
      <Polygon><outerBoundaryIs><LinearRing><coordinates>28.2573413072038,-25.7190754290325 28.2573413072038,-25.7190947609471 28.2573775170255,-25.7190935527025 28.257376175921,-25.7190766372772 28.2573413072038,-25.7190754290325</coordinates></LinearRing></outerBoundaryIs></Polygon>
  </Placemark>
  <Placemark>
	<name>4323</name>
	<Style><LineStyle><color>ff0000ff</color></LineStyle><PolyStyle><fill>0</fill></PolyStyle></Style>
      <Polygon><outerBoundaryIs><LinearRing><coordinates>28.2548433858259,-25.7199076867438 28.2548433858259,-25.7199294349954 28.2549158054693,-25.7199270185232 28.2549144643648,-25.7199040620349 28.2548433858259,-25.7199076867438</coordinates></LinearRing></outerBoundaryIs></Polygon>
  </Placemark>
  <Placemark>
	<name>4332</name>
	<Style><LineStyle><color>ff0000ff</color></LineStyle><PolyStyle><fill>0</fill></PolyStyle></Style>
      <Polygon><outerBoundaryIs><LinearRing><coordinates>28.2569357947434,-25.7215988387471 28.2569438413705,-25.7216447510652 28.2570819751347,-25.7216399181904 28.2570725874032,-25.7215915894321 28.2569357947434,-25.7215988387471</coordinates></LinearRing></outerBoundaryIs></Polygon>
  </Placemark>
  <Placemark>
	<name>4342</name>
	<Style><LineStyle><color>ff0000ff</color></LineStyle><PolyStyle><fill>0</fill></PolyStyle></Style>
      <Polygon><outerBoundaryIs><LinearRing><coordinates>28.2565236290069,-25.7211425920266 28.256528993425,-25.721178838734 28.2565491099926,-25.7211764222872 28.2565437455745,-25.7211377591314 28.2565236290069,-25.7211425920266</coordinates></LinearRing></outerBoundaryIs></Polygon>
  </Placemark>
  <Placemark>
	<name>4349</name>
	<Style><LineStyle><color>ff0000ff</color></LineStyle><PolyStyle><fill>0</fill></PolyStyle></Style>
      <Polygon><outerBoundaryIs><LinearRing><coordinates>27.826113964,-26.1234110148008 27.8261099406865,-26.1234278723067 27.8261367627767,-26.1234350969514 27.8261394449857,-26.1234182394465 27.826113964,-26.1234110148008</coordinates></LinearRing></outerBoundaryIs></Polygon>
  </Placemark>
  <Placemark>
	<name>4367</name>
	<Style><LineStyle><color>ff0000ff</color></LineStyle><PolyStyle><fill>0</fill></PolyStyle></Style>
      <Polygon><outerBoundaryIs><LinearRing><coordinates>27.7745141506274,-26.0917541916304 27.7745221972545,-26.0917782803025 27.7746080279429,-26.0917674404007 27.7746013224204,-26.0917445561602 27.7745141506274,-26.0917541916304</coordinates></LinearRing></outerBoundaryIs></Polygon>
  </Placemark>
  <Placemark>
	<name>4375</name>
	<Style><LineStyle><color>ff0000ff</color></LineStyle><PolyStyle><fill>0</fill></PolyStyle></Style>
      <Polygon><outerBoundaryIs><LinearRing><coordinates>27.7749068933755,-26.091219492403 27.7749095755845,-26.0912411723072 27.7749310332567,-26.0912387634292 27.7749283510477,-26.0912182879638 27.7749068933755,-26.091219492403</coordinates></LinearRing></outerBoundaryIs></Polygon>
  </Placemark>
  <Placemark>
	<name>4380</name>
	<Style><LineStyle><color>ff0000ff</color></LineStyle><PolyStyle><fill>0</fill></PolyStyle></Style>
      <Polygon><outerBoundaryIs><LinearRing><coordinates>27.7745375727824,-26.0882264205042 27.7745429372004,-26.0882468964932 27.7746073102168,-26.0882384652041 27.7745992635897,-26.0882167847435 27.7745375727824,-26.0882264205042</coordinates></LinearRing></outerBoundaryIs></Polygon>
  </Placemark>
  <Placemark>
	<name>4386</name>
	<Style><LineStyle><color>ff0000ff</color></LineStyle><PolyStyle><fill>0</fill></PolyStyle></Style>
      <Polygon><outerBoundaryIs><LinearRing><coordinates>27.7740168210184,-26.0881998742618 27.774020844332,-26.0882179413152 27.7740409608996,-26.0882131234346 27.7740463253176,-26.0882239636657 27.7741281326926,-26.088209510024 27.7741174038565,-26.0881854206172 27.7740168210184,-26.0881998742618</coordinates></LinearRing></outerBoundaryIs></Polygon>
  </Placemark>
  <Placemark>
	<name>4392</name>
	<Style><LineStyle><color>ff0000ff</color></LineStyle><PolyStyle><fill>0</fill></PolyStyle></Style>
      <Polygon><outerBoundaryIs><LinearRing><coordinates>18.5389377610081,-33.5828741983321 18.53893239659,-33.5829155368021 18.5390370027416,-33.5829289438691 18.5390423671596,-33.5828853708935 18.5389377610081,-33.5828741983321</coordinates></LinearRing></outerBoundaryIs></Polygon>
  </Placemark>
  <Placemark>
	<name>4394</name>
	<Style><LineStyle><color>ff0000ff</color></LineStyle><PolyStyle><fill>0</fill></PolyStyle></Style>
      <Polygon><outerBoundaryIs><LinearRing><coordinates>18.5411689993201,-33.5810852162141 18.5411689993201,-33.5811209691467 18.5412575122176,-33.5811299073775 18.5412628766356,-33.5810986235656 18.5411689993201,-33.5810852162141</coordinates></LinearRing></outerBoundaryIs></Polygon>
  </Placemark>
  <Placemark>
	<name>4396</name>
	<Style><LineStyle><color>ff0000ff</color></LineStyle><PolyStyle><fill>0</fill></PolyStyle></Style>
      <Polygon><outerBoundaryIs><LinearRing><coordinates>18.542499936942,-33.5758139911882 18.542510665778,-33.5758385728322 18.5425696743764,-33.5758273993585 18.5425589455403,-33.5758050524068 18.542499936942,-33.5758139911882</coordinates></LinearRing></outerBoundaryIs></Polygon>
  </Placemark>
  <Placemark>
	<name>4397</name>
	<Style><LineStyle><color>ff0000ff</color></LineStyle><PolyStyle><fill>0</fill></PolyStyle></Style>
      <Polygon><outerBoundaryIs><LinearRing><coordinates>18.5394066512886,-33.5796301067205 18.5394133568111,-33.579650218086 18.5394830942455,-33.5796401624038 18.539476388723,-33.5796222856327 18.5394066512886,-33.5796301067205</coordinates></LinearRing></outerBoundaryIs></Polygon>
  </Placemark>
  <Placemark>
	<name>4404</name>
	<Style><LineStyle><color>ff0000ff</color></LineStyle><PolyStyle><fill>0</fill></PolyStyle></Style>
      <Polygon><outerBoundaryIs><LinearRing><coordinates>18.5334970960117,-33.5602158087273 18.5334890493847,-33.5602269842214 18.5335078248478,-33.5602359246157 18.5335145303703,-33.5602247491227 18.5334970960117,-33.5602158087273</coordinates></LinearRing></outerBoundaryIs></Polygon>
  </Placemark>
  <Placemark>
	<name>4423</name>
	<Style><LineStyle><color>ff0000ff</color></LineStyle><PolyStyle><fill>0</fill></PolyStyle></Style>
      <Polygon><outerBoundaryIs><LinearRing><coordinates>30.461019044925,-30.7186178783744 30.4610364792836,-30.7186109607989 30.4609788117898,-30.7185314086448 30.4609680829537,-30.7185406320863 30.461019044925,-30.7186178783744</coordinates></LinearRing></outerBoundaryIs></Polygon>
  </Placemark>
  <Placemark>
	<name>4426</name>
	<Style><LineStyle><color>ff0000ff</color></LineStyle><PolyStyle><fill>0</fill></PolyStyle></Style>
      <Polygon><outerBoundaryIs><LinearRing><coordinates>30.4603251284697,-30.7185890551398 30.4603345162012,-30.7186144195867 30.4604257113077,-30.7185844434215 30.4604176646807,-30.7185648436161 30.4603251284697,-30.7185890551398</coordinates></LinearRing></outerBoundaryIs></Polygon>
  </Placemark>
  <Placemark>
	<name>4440</name>
	<Style><LineStyle><color>ff0000ff</color></LineStyle><PolyStyle><fill>0</fill></PolyStyle></Style>
      <Polygon><outerBoundaryIs><LinearRing><coordinates>30.4634743078185,-30.7205837718037 30.4634756489231,-30.720606829915 30.4635802550746,-30.72059530086 30.4635775728656,-30.7205768543692 30.4634743078185,-30.7205837718037</coordinates></LinearRing></outerBoundaryIs></Polygon>
  </Placemark>
  <Placemark>
	<name>4441</name>
	<Style><LineStyle><color>ff0000ff</color></LineStyle><PolyStyle><fill>0</fill></PolyStyle></Style>
      <Polygon><outerBoundaryIs><LinearRing><coordinates>30.4648860716075,-30.7199227142695 30.4648579084128,-30.7199457725389 30.4648968004436,-30.7199838186714 30.4649263047427,-30.7199630662373 30.4648860716075,-30.7199227142695</coordinates></LinearRing></outerBoundaryIs></Polygon>
  </Placemark>
  <Placemark>
	<name>4450</name>
	<Style><LineStyle><color>ff0000ff</color></LineStyle><PolyStyle><fill>0</fill></PolyStyle></Style>
      <Polygon><outerBoundaryIs><LinearRing><coordinates>30.4654497726602,-30.7180955377476 30.4654685481233,-30.7181612550462 30.4654953702135,-30.7181577962421 30.4654779358549,-30.7180932318767 30.4654497726602,-30.7180955377476</coordinates></LinearRing></outerBoundaryIs></Polygon>
  </Placemark>
  <Placemark>
	<name>4455</name>
	<Style><LineStyle><color>ff0000ff</color></LineStyle><PolyStyle><fill>0</fill></PolyStyle></Style>
      <Polygon><outerBoundaryIs><LinearRing><coordinates>28.3729910523502,-26.3553050972934 28.3730125100224,-26.355291878506 28.3729293615429,-26.355180119607 28.3729079038708,-26.3551921366982 28.3729910523502,-26.3553050972934</coordinates></LinearRing></outerBoundaryIs></Polygon>
  </Placemark>
  <Placemark>
	<name>4458</name>
	<Style><LineStyle><color>ff0000ff</color></LineStyle><PolyStyle><fill>0</fill></PolyStyle></Style>
      <Polygon><outerBoundaryIs><LinearRing><coordinates>25.5599657720679,-33.925994911115 25.5599832064265,-33.9260071518453 25.5600770837421,-33.9259470609708 25.560063672697,-33.9259359330264 25.5599657720679,-33.925994911115</coordinates></LinearRing></outerBoundaryIs></Polygon>
  </Placemark>
  <Placemark>
	<name>4463</name>
	<Style><LineStyle><color>ff0000ff</color></LineStyle><PolyStyle><fill>0</fill></PolyStyle></Style>
      <Polygon><outerBoundaryIs><LinearRing><coordinates>25.5596978381131,-33.926045871833 25.5597139313672,-33.9260603381418 25.5597340479348,-33.9260525485912 25.5597192957852,-33.9260336311083 25.5596978381131,-33.926045871833</coordinates></LinearRing></outerBoundaryIs></Polygon>
  </Placemark>
  <Placemark>
	<name>4468</name>
	<Style><LineStyle><color>ff0000ff</color></LineStyle><PolyStyle><fill>0</fill></PolyStyle></Style>
      <Polygon><outerBoundaryIs><LinearRing><coordinates>25.5587414678905,-33.9249494539065 25.5587709721897,-33.9249895149634 25.5587991353844,-33.9249750484728 25.5587696310852,-33.9249361002167 25.5587414678905,-33.9249494539065</coordinates></LinearRing></outerBoundaryIs></Polygon>
  </Placemark>
  <Placemark>
	<name>4482</name>
	<Style><LineStyle><color>ff0000ff</color></LineStyle><PolyStyle><fill>0</fill></PolyStyle></Style>
      <Polygon><outerBoundaryIs><LinearRing><coordinates>18.9623786065428,-33.7322420386531 18.9623692188113,-33.7322810747923 18.9624402973502,-33.7322788441563 18.9624523672907,-33.7322409233346 18.9623786065428,-33.7322420386531</coordinates></LinearRing></outerBoundaryIs></Polygon>
  </Placemark>
  <Placemark>
	<name>4491</name>
	<Style><LineStyle><color>ff0000ff</color></LineStyle><PolyStyle><fill>0</fill></PolyStyle></Style>
      <Polygon><outerBoundaryIs><LinearRing><coordinates>18.9607616795955,-33.7340195769776 18.9607764317451,-33.7340831487925 18.9607992305217,-33.7340742264353 18.9607817961631,-33.7340151157958 18.9607616795955,-33.7340195769776</coordinates></LinearRing></outerBoundaryIs></Polygon>
  </Placemark>
  <Placemark>
	<name>4501</name>
	<Style><LineStyle><color>ff0000ff</color></LineStyle><PolyStyle><fill>0</fill></PolyStyle></Style>
      <Polygon><outerBoundaryIs><LinearRing><coordinates>18.9599092875776,-33.7323388158573 18.9599092875776,-33.7323700447349 18.9599347685633,-33.7323700447349 18.9599294041452,-33.7323432771262 18.9599092875776,-33.7323388158573</coordinates></LinearRing></outerBoundaryIs></Polygon>
  </Placemark>
  <Placemark>
	<name>4503</name>
	<Style><LineStyle><color>ff0000ff</color></LineStyle><PolyStyle><fill>0</fill></PolyStyle></Style>
      <Polygon><outerBoundaryIs><LinearRing><coordinates>18.9592213009653,-33.7320555248059 18.95924946416,-33.7320822925043 18.9592668985185,-33.7320666780146 18.9592427586374,-33.7320421409536 18.9592213009653,-33.7320555248059</coordinates></LinearRing></outerBoundaryIs></Polygon>
  </Placemark>
  <Placemark>
	<name>4507</name>
	<Style><LineStyle><color>ff0000ff</color></LineStyle><PolyStyle><fill>0</fill></PolyStyle></Style>
      <Polygon><outerBoundaryIs><LinearRing><coordinates>18.9588752960024,-33.7320332183842 18.9588766371069,-33.7320711392977 18.9588967536745,-33.7320700239769 18.958900776988,-33.7320577554478 18.958898094779,-33.7320387949902 18.9588887070474,-33.7320309877417 18.9588752960024,-33.7320332183842</coordinates></LinearRing></outerBoundaryIs></Polygon>
  </Placemark>
  <Placemark>
	<name>4512</name>
	<Style><LineStyle><color>ff0000ff</color></LineStyle><PolyStyle><fill>0</fill></PolyStyle></Style>
      <Polygon><outerBoundaryIs><LinearRing><coordinates>18.958379370437,-33.7320185133214 18.9583807115415,-33.7320385891047 18.9584920232156,-33.7320307818562 18.9584906821111,-33.7320140520356 18.958379370437,-33.7320185133214</coordinates></LinearRing></outerBoundaryIs></Polygon>
  </Placemark>
  <Placemark>
	<name>4513</name>
	<Style><LineStyle><color>ff0000ff</color></LineStyle><PolyStyle><fill>0</fill></PolyStyle></Style>
      <Polygon><outerBoundaryIs><LinearRing><coordinates>18.9584142391542,-33.7320385891047 18.9584142391542,-33.7320586648833 18.958474588857,-33.7320564342414 18.958474588857,-33.7320363584624 18.9584142391542,-33.7320385891047</coordinates></LinearRing></outerBoundaryIs></Polygon>
  </Placemark>
  <Placemark>
	<name>4515</name>
	<Style><LineStyle><color>ff0000ff</color></LineStyle><PolyStyle><fill>0</fill></PolyStyle></Style>
      <Polygon><outerBoundaryIs><LinearRing><coordinates>18.9581004206994,-33.7325393668448 18.9580990795949,-33.7325572118774 18.958117855058,-33.7325572118774 18.958120537267,-33.7325404821595 18.9581004206994,-33.7325393668448</coordinates></LinearRing></outerBoundaryIs></Polygon>
  </Placemark>
  <Placemark>
	<name>4526</name>
	<Style><LineStyle><color>ff0000ff</color></LineStyle><PolyStyle><fill>0</fill></PolyStyle></Style>
      <Polygon><outerBoundaryIs><LinearRing><coordinates>18.9594813577009,-33.7338269592402 18.9594826988054,-33.733862648766 18.9595470718218,-33.733862648766 18.9595470718218,-33.7338236133464 18.9594813577009,-33.7338269592402</coordinates></LinearRing></outerBoundaryIs></Polygon>
  </Placemark>
  <Placemark>
	<name>4527</name>
	<Style><LineStyle><color>ff0000ff</color></LineStyle><PolyStyle><fill>0</fill></PolyStyle></Style>
      <Polygon><outerBoundaryIs><LinearRing><coordinates>18.9590843907667,-33.7337299282666 18.9590857318712,-33.7337578107415 18.9591192594839,-33.733754464845 18.9591192594839,-33.7337310435658 18.9590843907667,-33.7337299282666</coordinates></LinearRing></outerBoundaryIs></Polygon>
  </Placemark>
  <Placemark>
	<name>4545</name>
	<Style><LineStyle><color>ff0000ff</color></LineStyle><PolyStyle><fill>0</fill></PolyStyle></Style>
      <Polygon><outerBoundaryIs><LinearRing><coordinates>18.9572916870566,-33.732468313257 18.957290345952,-33.7324861583043 18.9573091214152,-33.7324861583043 18.9573118036242,-33.7324761204656 18.9573278968783,-33.732468313257 18.9573292379828,-33.7324538141533 18.9573037569971,-33.7324515835217 18.9573037569971,-33.7324660826258 18.9572916870566,-33.732468313257</coordinates></LinearRing></outerBoundaryIs></Polygon>
  </Placemark>
  <Placemark>
	<name>4548</name>
	<Style><LineStyle><color>ff0000ff</color></LineStyle><PolyStyle><fill>0</fill></PolyStyle></Style>
      <Polygon><outerBoundaryIs><LinearRing><coordinates>18.9568598514052,-33.7323585324741 18.9568625336142,-33.7323841847613 18.9569429998846,-33.732377492861 18.9569376354666,-33.732355186523 18.9568598514052,-33.7323585324741</coordinates></LinearRing></outerBoundaryIs></Polygon>
  </Placemark>
  <Placemark>
	<name>4559</name>
	<Style><LineStyle><color>ff0000ff</color></LineStyle><PolyStyle><fill>0</fill></PolyStyle></Style>
      <Polygon><outerBoundaryIs><LinearRing><coordinates>18.8133431663108,-34.0568802407908 18.8133498718333,-34.0568913515999 18.8134061982226,-34.0568757964667 18.8134035160136,-34.056861352412 18.8133431663108,-34.0568802407908</coordinates></LinearRing></outerBoundaryIs></Polygon>
  </Placemark>
  <Placemark>
	<name>4562</name>
	<Style><LineStyle><color>ff0000ff</color></LineStyle><PolyStyle><fill>0</fill></PolyStyle></Style>
      <Polygon><outerBoundaryIs><LinearRing><coordinates>18.8139077713084,-34.0573046726627 18.8139131357265,-34.0573191166419 18.8139949431014,-34.0572980062099 18.8139828731608,-34.0572791179242 18.8139077713084,-34.0573046726627</coordinates></LinearRing></outerBoundaryIs></Polygon>
  </Placemark>
  <Placemark>
	<name>4576</name>
	<Style><LineStyle><color>ff0000ff</color></LineStyle><PolyStyle><fill>0</fill></PolyStyle></Style>
      <Polygon><outerBoundaryIs><LinearRing><coordinates>18.8139789389706,-34.0582230652498 18.8140272187329,-34.0582952843386 18.8140526997185,-34.0582808405258 18.8140044199563,-34.0582130656788 18.8139789389706,-34.0582230652498</coordinates></LinearRing></outerBoundaryIs></Polygon>
  </Placemark>
  <Placemark>
	<name>4583</name>
	<Style><LineStyle><color>ff0000ff</color></LineStyle><PolyStyle><fill>0</fill></PolyStyle></Style>
      <Polygon><outerBoundaryIs><LinearRing><coordinates>18.8166647952686,-34.0586799039266 18.8166822296272,-34.0586865702706 18.8166902762542,-34.0586721265245 18.8166741830001,-34.0586654601793 18.8166647952686,-34.0586799039266</coordinates></LinearRing></outerBoundaryIs></Polygon>
  </Placemark>
  <Placemark>
	<name>4585</name>
	<Style><LineStyle><color>ff0000ff</color></LineStyle><PolyStyle><fill>0</fill></PolyStyle></Style>
      <Polygon><outerBoundaryIs><LinearRing><coordinates>18.8175016444812,-34.0587895768587 18.8175070088992,-34.0588073537521 18.8175982040057,-34.0587884658028 18.8175888162742,-34.0587729110178 18.8175016444812,-34.0587895768587</coordinates></LinearRing></outerBoundaryIs></Polygon>
  </Placemark>
  <Placemark>
	<name>4588</name>
	<Style><LineStyle><color>ff0000ff</color></LineStyle><PolyStyle><fill>0</fill></PolyStyle></Style>
      <Polygon><outerBoundaryIs><LinearRing><coordinates>18.8180037044461,-34.0590248160612 18.8180171154912,-34.0590425929052 18.8180761240895,-34.0590092613196 18.8180627130445,-34.0589948176284 18.8180037044461,-34.0590248160612</coordinates></LinearRing></outerBoundaryIs></Polygon>
  </Placemark>
  <Placemark>
	<name>4589</name>
	<Style><LineStyle><color>ff0000ff</color></LineStyle><PolyStyle><fill>0</fill></PolyStyle></Style>
      <Polygon><outerBoundaryIs><LinearRing><coordinates>18.8179420136388,-34.0590770355299 18.8179581068929,-34.0590959234149 18.8180922173436,-34.0590270381669 18.8180734418805,-34.0590103723727 18.8179420136388,-34.0590770355299</coordinates></LinearRing></outerBoundaryIs></Polygon>
  </Placemark>
  <Placemark>
	<name>4617</name>
	<Style><LineStyle><color>ff0000ff</color></LineStyle><PolyStyle><fill>0</fill></PolyStyle></Style>
      <Polygon><outerBoundaryIs><LinearRing><coordinates>18.8176562789775,-34.0612157836658 18.8176831010677,-34.0612391151697 18.8177126053668,-34.0612213387863 18.8177018765308,-34.0612135616175 18.8177152875759,-34.0612013403507 18.8176991943218,-34.0611868970331 18.8176562789775,-34.0612157836658</coordinates></LinearRing></outerBoundaryIs></Polygon>
  </Placemark>
  <Placemark>
	<name>4618</name>
	<Style><LineStyle><color>ff0000ff</color></LineStyle><PolyStyle><fill>0</fill></PolyStyle></Style>
      <Polygon><outerBoundaryIs><LinearRing><coordinates>18.8176857832767,-34.0612580025729 18.8176965121128,-34.0612735569017 18.817736745248,-34.0612502254073 18.8177260164119,-34.0612402261935 18.8176857832767,-34.0612580025729</coordinates></LinearRing></outerBoundaryIs></Polygon>
  </Placemark>
  <Placemark>
	<name>4627</name>
	<Style><LineStyle><color>ff0000ff</color></LineStyle><PolyStyle><fill>0</fill></PolyStyle></Style>
      <Polygon><outerBoundaryIs><LinearRing><coordinates>18.8185145858623,-34.0627400950862 18.8184998337127,-34.0627589821548 18.818558842311,-34.0627823132338 18.8185695711471,-34.0627678701857 18.818553477893,-34.0627623151665 18.8185668889381,-34.0627423170945 18.8185373846389,-34.0627267630352 18.8185239735939,-34.0627467611109 18.8185145858623,-34.0627400950862</coordinates></LinearRing></outerBoundaryIs></Polygon>
  </Placemark>
  <Placemark>
	<name>4633</name>
	<Style><LineStyle><color>ff0000ff</color></LineStyle><PolyStyle><fill>0</fill></PolyStyle></Style>
      <Polygon><outerBoundaryIs><LinearRing><coordinates>18.8172055150764,-34.0624392696244 18.8172296549575,-34.0624448246648 18.8172725703017,-34.0623526109478 18.8172457482116,-34.0623470559014 18.8172055150764,-34.0624392696244</coordinates></LinearRing></outerBoundaryIs></Polygon>
  </Placemark>
  <Placemark>
	<name>4645</name>
	<Style><LineStyle><color>ff0000ff</color></LineStyle><PolyStyle><fill>0</fill></PolyStyle></Style>
      <Polygon><outerBoundaryIs><LinearRing><coordinates>18.8171618223487,-34.0631001323184 18.8171551168262,-34.0631212413052 18.8171819389163,-34.063129018299 18.8171886444388,-34.0631056873154 18.8171618223487,-34.0631001323184</coordinates></LinearRing></outerBoundaryIs></Polygon>
  </Placemark>
  <Placemark>
	<name>4647</name>
	<Style><LineStyle><color>ff0000ff</color></LineStyle><PolyStyle><fill>0</fill></PolyStyle></Style>
      <Polygon><outerBoundaryIs><LinearRing><coordinates>18.8158126712142,-34.0626568423813 18.8157979190646,-34.0626768404735 18.8158488810359,-34.0627079486076 18.815862292081,-34.0626912835371 18.8158126712142,-34.0626568423813</coordinates></LinearRing></outerBoundaryIs></Polygon>
  </Placemark>
  <Placemark>
	<name>4650</name>
	<Style><LineStyle><color>ff0000ff</color></LineStyle><PolyStyle><fill>0</fill></PolyStyle></Style>
      <Polygon><outerBoundaryIs><LinearRing><coordinates>18.8165301621257,-34.0627235026703 18.8165489375888,-34.0627357237176 18.816591852933,-34.0627001715751 18.8165730774699,-34.0626868395178 18.8165301621257,-34.0627235026703</coordinates></LinearRing></outerBoundaryIs></Polygon>
  </Placemark>
  <Placemark>
	<name>4654</name>
	<Style><LineStyle><color>ff0000ff</color></LineStyle><PolyStyle><fill>0</fill></PolyStyle></Style>
      <Polygon><outerBoundaryIs><LinearRing><coordinates>18.8155551791488,-34.0621335572908 18.8155390858947,-34.0621535555065 18.8156141877471,-34.0622013290027 18.8156316221057,-34.0621835528212 18.8155551791488,-34.0621335572908</coordinates></LinearRing></outerBoundaryIs></Polygon>
  </Placemark>
  <Placemark>
	<name>4655</name>
	<Style><LineStyle><color>ff0000ff</color></LineStyle><PolyStyle><fill>0</fill></PolyStyle></Style>
      <Polygon><outerBoundaryIs><LinearRing><coordinates>18.8153446257411,-34.0618491377122 18.815331214696,-34.0618613588856 18.8154317975341,-34.0619313528447 18.8154411852656,-34.0619191316814 18.8153446257411,-34.0618491377122</coordinates></LinearRing></outerBoundaryIs></Polygon>
  </Placemark>
  <Placemark>
	<name>4666</name>
	<Style><LineStyle><color>ff0000ff</color></LineStyle><PolyStyle><fill>0</fill></PolyStyle></Style>
      <Polygon><outerBoundaryIs><LinearRing><coordinates>18.8143092930614,-34.0615058331212 18.8142958820163,-34.0615291645452 18.8143253863154,-34.0615447188243 18.8143441617785,-34.0615213874046 18.8143092930614,-34.0615058331212</coordinates></LinearRing></outerBoundaryIs></Polygon>
  </Placemark>
  <Placemark>
	<name>4671</name>
	<Style><LineStyle><color>ff0000ff</color></LineStyle><PolyStyle><fill>0</fill></PolyStyle></Style>
      <Polygon><outerBoundaryIs><LinearRing><coordinates>18.8130276578005,-34.0607410819337 18.8130155878599,-34.0607544142971 18.8130491154726,-34.0607666356283 18.8130558209952,-34.0607566363574 18.8130276578005,-34.0607410819337</coordinates></LinearRing></outerBoundaryIs></Polygon>
  </Placemark>
  <Placemark>
	<name>4679</name>
	<Style><LineStyle><color>ff0000ff</color></LineStyle><PolyStyle><fill>0</fill></PolyStyle></Style>
      <Polygon><outerBoundaryIs><LinearRing><coordinates>18.8134361300785,-34.0601846814724 18.8134535644371,-34.0602024580731 18.813516596349,-34.0601557944882 18.8135058675129,-34.0601424620306 18.8134361300785,-34.0601846814724</coordinates></LinearRing></outerBoundaryIs></Polygon>
  </Placemark>
  <Placemark>
	<name>4682</name>
	<Style><LineStyle><color>ff0000ff</color></LineStyle><PolyStyle><fill>0</fill></PolyStyle></Style>
      <Polygon><outerBoundaryIs><LinearRing><coordinates>18.8142055237399,-34.0606480160695 18.8141599261866,-34.0607180110307 18.8141974771129,-34.0607380095804 18.8142457568751,-34.0606669036044 18.8142055237399,-34.0606480160695</coordinates></LinearRing></outerBoundaryIs></Polygon>
  </Placemark>
  <Placemark>
	<name>4684</name>
	<Style><LineStyle><color>ff0000ff</color></LineStyle><PolyStyle><fill>0</fill></PolyStyle></Style>
      <Polygon><outerBoundaryIs><LinearRing><coordinates>18.8161632623569,-34.0607497946094 18.8161578979389,-34.0607664600616 18.8162209298507,-34.0607975688969 18.8162276353733,-34.0607831255105 18.8161632623569,-34.0607497946094</coordinates></LinearRing></outerBoundaryIs></Polygon>
  </Placemark>
  <Placemark>
	<name>4687</name>
	<Style><LineStyle><color>ff0000ff</color></LineStyle><PolyStyle><fill>0</fill></PolyStyle></Style>
      <Polygon><outerBoundaryIs><LinearRing><coordinates>18.8159285690681,-34.0606575790481 18.8159178402321,-34.0606764665808 18.8159285690681,-34.0606820217367 18.8159205224411,-34.0606997982332 18.8159620966808,-34.0607164636952 18.8159701433078,-34.060702020295 18.8159607555763,-34.0606975761713 18.8159714844124,-34.0606820217367 18.8159285690681,-34.0606575790481</coordinates></LinearRing></outerBoundaryIs></Polygon>
  </Placemark>
  <Placemark>
	<name>4688</name>
	<Style><LineStyle><color>ff0000ff</color></LineStyle><PolyStyle><fill>0</fill></PolyStyle></Style>
      <Polygon><outerBoundaryIs><LinearRing><coordinates>18.8156496193306,-34.0605464758288 18.8156442549125,-34.0605620302883 18.8157703187362,-34.060604249521 18.8157743420498,-34.0605920281663 18.8156496193306,-34.0605464758288</coordinates></LinearRing></outerBoundaryIs></Polygon>
  </Placemark>
  <Placemark>
	<name>4695</name>
	<Style><LineStyle><color>ff0000ff</color></LineStyle><PolyStyle><fill>0</fill></PolyStyle></Style>
      <Polygon><outerBoundaryIs><LinearRing><coordinates>18.8150206413166,-34.0608197894866 18.8150394167797,-34.0608331218376 18.8150675799743,-34.0607853475701 18.8150434400932,-34.0607775703613 18.8150206413166,-34.0608197894866</coordinates></LinearRing></outerBoundaryIs></Polygon>
  </Placemark>
  <Placemark>
	<name>4697</name>
	<Style><LineStyle><color>ff0000ff</color></LineStyle><PolyStyle><fill>0</fill></PolyStyle></Style>
      <Polygon><outerBoundaryIs><LinearRing><coordinates>18.8147551026241,-34.0603276020608 18.814741691579,-34.0603342682753 18.8148074056999,-34.0604075965999 18.8148194756405,-34.0603987083215 18.8147551026241,-34.0603276020608</coordinates></LinearRing></outerBoundaryIs></Polygon>
  </Placemark>
  <Placemark>
	<name>4703</name>
	<Style><LineStyle><color>ff0000ff</color></LineStyle><PolyStyle><fill>0</fill></PolyStyle></Style>
      <Polygon><outerBoundaryIs><LinearRing><coordinates>18.8161230292217,-34.0602642729971 18.8161123003856,-34.0602909378718 18.8161525335209,-34.0603087144503 18.8161659445659,-34.0602842716539 18.8161230292217,-34.0602642729971</coordinates></LinearRing></outerBoundaryIs></Polygon>
  </Placemark>
  <Placemark>
	<name>4707</name>
	<Style><LineStyle><color>ff0000ff</color></LineStyle><PolyStyle><fill>0</fill></PolyStyle></Style>
      <Polygon><outerBoundaryIs><LinearRing><coordinates>18.816783239051,-34.0593909937146 18.8168342010223,-34.0594421019103 18.8168516353809,-34.059429880388 18.8168033556186,-34.0593787721849 18.816783239051,-34.0593909937146</coordinates></LinearRing></outerBoundaryIs></Polygon>
  </Placemark>
  <Placemark>
	<name>4708</name>
	<Style><LineStyle><color>ff0000ff</color></LineStyle><PolyStyle><fill>0</fill></PolyStyle></Style>
      <Polygon><outerBoundaryIs><LinearRing><coordinates>18.816159625455,-34.059497654262 18.816156943246,-34.0595154310068 18.8162374095165,-34.0595443182093 18.8162427739345,-34.0595265414705 18.816159625455,-34.059497654262</coordinates></LinearRing></outerBoundaryIs></Polygon>
  </Placemark>
  <Placemark>
	<name>4716</name>
	<Style><LineStyle><color>ff0000ff</color></LineStyle><PolyStyle><fill>0</fill></PolyStyle></Style>
      <Polygon><outerBoundaryIs><LinearRing><coordinates>18.8153817848407,-34.0594054373382 18.8153951958858,-34.0594221030548 18.815435429021,-34.0593965489547 18.8154220179759,-34.0593832163777 18.8153817848407,-34.0594054373382</coordinates></LinearRing></outerBoundaryIs></Polygon>
  </Placemark>
  <Placemark>
	<name>4717</name>
	<Style><LineStyle><color>ff0000ff</color></LineStyle><PolyStyle><fill>0</fill></PolyStyle></Style>
      <Polygon><outerBoundaryIs><LinearRing><coordinates>18.8154635922157,-34.0593832163777 18.8154488400661,-34.0593898826665 18.8154689566337,-34.0594098815296 18.8154810265743,-34.0593987710507 18.8154635922157,-34.0593832163777</coordinates></LinearRing></outerBoundaryIs></Polygon>
  </Placemark>
  <Placemark>
	<name>4718</name>
	<Style><LineStyle><color>ff0000ff</color></LineStyle><PolyStyle><fill>0</fill></PolyStyle></Style>
      <Polygon><outerBoundaryIs><LinearRing><coordinates>18.8155950204574,-34.0594287693405 18.8156164781295,-34.0594332135306 18.8156379358016,-34.0593821053295 18.815615137025,-34.0593743279919 18.8155950204574,-34.0594287693405</coordinates></LinearRing></outerBoundaryIs></Polygon>
  </Placemark>
  <Placemark>
	<name>4732</name>
	<Style><LineStyle><color>ff0000ff</color></LineStyle><PolyStyle><fill>0</fill></PolyStyle></Style>
      <Polygon><outerBoundaryIs><LinearRing><coordinates>18.8125395608425,-34.0602890626274 18.8125596774101,-34.0603057281702 18.8126106393814,-34.0602768412272 18.8125945461273,-34.0602612867154 18.8125395608425,-34.0602890626274</coordinates></LinearRing></outerBoundaryIs></Polygon>
  </Placemark>
  <Placemark>
	<name>4761</name>
	<Style><LineStyle><color>ff0000ff</color></LineStyle><PolyStyle><fill>0</fill></PolyStyle></Style>
      <Polygon><outerBoundaryIs><LinearRing><coordinates>18.8136991231717,-34.063832792374 18.8136910765446,-34.0638527901887 18.8137165575303,-34.0638639000837 18.8137259452618,-34.0638439022716 18.8136991231717,-34.063832792374</coordinates></LinearRing></outerBoundaryIs></Polygon>
  </Placemark>
  <Placemark>
	<name>4774</name>
	<Style><LineStyle><color>ff0000ff</color></LineStyle><PolyStyle><fill>0</fill></PolyStyle></Style>
      <Polygon><outerBoundaryIs><LinearRing><coordinates>18.8152894787932,-34.0646667450185 18.8152814321661,-34.064681187743 18.8153136186743,-34.0646945194865 18.8153189830923,-34.064676743828 18.8152894787932,-34.0646667450185</coordinates></LinearRing></outerBoundaryIs></Polygon>
  </Placemark>
  <Placemark>
	<name>4778</name>
	<Style><LineStyle><color>ff0000ff</color></LineStyle><PolyStyle><fill>0</fill></PolyStyle></Style>
      <Polygon><outerBoundaryIs><LinearRing><coordinates>18.814770891581,-34.0634967052554 18.814765527163,-34.0635044822147 18.8147802793126,-34.0635144811614 18.8147869848351,-34.0635055932089 18.814770891581,-34.0634967052554</coordinates></LinearRing></outerBoundaryIs></Polygon>
  </Placemark>
  <Placemark>
	<name>4783</name>
	<Style><LineStyle><color>ff0000ff</color></LineStyle><PolyStyle><fill>0</fill></PolyStyle></Style>
      <Polygon><outerBoundaryIs><LinearRing><coordinates>18.815859868441,-34.0630931570008 18.815846457396,-34.0631075999935 18.8158893727402,-34.0631353749726 18.8159001015763,-34.0631231539829 18.815859868441,-34.0630931570008</coordinates></LinearRing></outerBoundaryIs></Polygon>
  </Placemark>
  <Placemark>
	<name>4792</name>
	<Style><LineStyle><color>ff0000ff</color></LineStyle><PolyStyle><fill>0</fill></PolyStyle></Style>
      <Polygon><outerBoundaryIs><LinearRing><coordinates>18.8136800966324,-34.0628338997756 18.8136546156468,-34.062880561886 18.8136707089008,-34.0628894499041 18.813697530991,-34.0628394547901 18.8136800966324,-34.0628338997756</coordinates></LinearRing></outerBoundaryIs></Polygon>
  </Placemark>
  <Placemark>
	<name>4808</name>
	<Style><LineStyle><color>ff0000ff</color></LineStyle><PolyStyle><fill>0</fill></PolyStyle></Style>
      <Polygon><outerBoundaryIs><LinearRing><coordinates>30.7703906910657,-25.1092372731324 30.7704161720514,-25.1092737042469 30.7704349475145,-25.1092627749137 30.7704094665288,-25.1092239150544 30.7703906910657,-25.1092372731324</coordinates></LinearRing></outerBoundaryIs></Polygon>
  </Placemark>
  <Placemark>
	<name>4813</name>
	<Style><LineStyle><color>ff0000ff</color></LineStyle><PolyStyle><fill>0</fill></PolyStyle></Style>
      <Polygon><outerBoundaryIs><LinearRing><coordinates>30.7685144858598,-25.1085560092916 30.7685010748147,-25.1085535805367 30.7684970515012,-25.108575439329 30.768552036786,-25.1085766537062 30.7685600834131,-25.1085341504959 30.7685144858598,-25.1085353648735 30.7685144858598,-25.1085560092916</coordinates></LinearRing></outerBoundaryIs></Polygon>
  </Placemark>
  <Placemark>
	<name>4814</name>
	<Style><LineStyle><color>ff0000ff</color></LineStyle><PolyStyle><fill>0</fill></PolyStyle></Style>
      <Polygon><outerBoundaryIs><LinearRing><coordinates>30.7683830576181,-25.1085790824606 30.7683830576181,-25.1086009412483 30.7684071974992,-25.1085997268713 30.7684098797082,-25.1085790824606 30.7683830576181,-25.1085790824606</coordinates></LinearRing></outerBoundaryIs></Polygon>
  </Placemark>
  <Placemark>
	<name>4817</name>
	<Style><LineStyle><color>ff0000ff</color></LineStyle><PolyStyle><fill>0</fill></PolyStyle></Style>
      <Polygon><outerBoundaryIs><LinearRing><coordinates>30.7704083466017,-25.1086226202781 30.7704110288107,-25.1086456934345 30.7704888128721,-25.1086396215516 30.7704941772901,-25.1086189771477 30.7704083466017,-25.1086226202781</coordinates></LinearRing></outerBoundaryIs></Polygon>
  </Placemark>
  <Placemark>
	<name>4824</name>
	<Style><LineStyle><color>ff0000ff</color></LineStyle><PolyStyle><fill>0</fill></PolyStyle></Style>
      <Polygon><outerBoundaryIs><LinearRing><coordinates>24.7529051304771,-28.7429026563148 24.7529104948951,-28.7429285252778 24.7530794740631,-28.7429073597631 24.753074109645,-28.7428850183819 24.7529051304771,-28.7429026563148</coordinates></LinearRing></outerBoundaryIs></Polygon>
  </Placemark>
  <Placemark>
	<name>4825</name>
	<Style><LineStyle><color>ff0000ff</color></LineStyle><PolyStyle><fill>0</fill></PolyStyle></Style>
      <Polygon><outerBoundaryIs><LinearRing><coordinates>24.7537352741672,-28.7421637693285 24.7537473441078,-28.7422307939207 24.7540611625625,-28.7421814073832 24.7540504337265,-28.7421355484347 24.7539069355442,-28.7421578899762 24.7539002300216,-28.7421367243054 24.7537352741672,-28.7421637693285</coordinates></LinearRing></outerBoundaryIs></Polygon>
  </Placemark>
  <Placemark>
	<name>4836</name>
	<Style><LineStyle><color>ff0000ff</color></LineStyle><PolyStyle><fill>0</fill></PolyStyle></Style>
      <Polygon><outerBoundaryIs><LinearRing><coordinates>24.7515749458297,-28.7446596995496 24.7515950623973,-28.7446596995496 24.7515937212928,-28.7446091383176 24.7515736047252,-28.7446079624747 24.7515749458297,-28.7446596995496</coordinates></LinearRing></outerBoundaryIs></Polygon>
  </Placemark>
  <Placemark>
	<name>4841</name>
	<Style><LineStyle><color>ff0000ff</color></LineStyle><PolyStyle><fill>0</fill></PolyStyle></Style>
      <Polygon><outerBoundaryIs><LinearRing><coordinates>24.7545629266723,-28.7444115965251 24.7545656088813,-28.7444609820082 24.7546098653301,-28.7444562786299 24.7546098653301,-28.7444127723702 24.7545629266723,-28.7444115965251</coordinates></LinearRing></outerBoundaryIs></Polygon>
  </Placemark>
  <Placemark>
	<name>4844</name>
	<Style><LineStyle><color>ff0000ff</color></LineStyle><PolyStyle><fill>0</fill></PolyStyle></Style>
      <Polygon><outerBoundaryIs><LinearRing><coordinates>24.7545736555084,-28.7445174225318 24.7545749966129,-28.7445479944693 24.7546112064346,-28.7445479944693 24.7546085242255,-28.7445174225318 24.7545736555084,-28.7445174225318</coordinates></LinearRing></outerBoundaryIs></Polygon>
  </Placemark>
  <Placemark>
	<name>4845</name>
	<Style><LineStyle><color>ff0000ff</color></LineStyle><PolyStyle><fill>0</fill></PolyStyle></Style>
      <Polygon><outerBoundaryIs><LinearRing><coordinates>24.7546179119571,-28.7445609287479 24.7546179119571,-28.7445926765158 24.7546500984653,-28.7445938523589 24.7546474162563,-28.744558577061 24.7546179119571,-28.7445609287479</coordinates></LinearRing></outerBoundaryIs></Polygon>
  </Placemark>
  <Placemark>
	<name>4858</name>
	<Style><LineStyle><color>ff0000ff</color></LineStyle><PolyStyle><fill>0</fill></PolyStyle></Style>
      <Polygon><outerBoundaryIs><LinearRing><coordinates>24.7570351458733,-28.7452718756352 24.7570351458733,-28.7452906890003 24.757068673486,-28.7452906890003 24.757068673486,-28.7452718756352 24.7570351458733,-28.7452718756352</coordinates></LinearRing></outerBoundaryIs></Polygon>
  </Placemark>
  <Placemark>
	<name>4878</name>
	<Style><LineStyle><color>ff0000ff</color></LineStyle><PolyStyle><fill>0</fill></PolyStyle></Style>
      <Polygon><outerBoundaryIs><LinearRing><coordinates>18.5360752176918,-33.8980374850361 18.5360913109459,-33.8981053876981 18.536115450827,-33.8980998219082 18.5360993575729,-33.8980330324007 18.5360752176918,-33.8980374850361</coordinates></LinearRing></outerBoundaryIs></Polygon>
  </Placemark>
  <Placemark>
	<name>4887</name>
	<Style><LineStyle><color>ff0000ff</color></LineStyle><PolyStyle><fill>0</fill></PolyStyle></Style>
      <Polygon><outerBoundaryIs><LinearRing><coordinates>18.5360992446456,-33.8958616185103 18.5360965624365,-33.8958749767561 18.5361153378996,-33.8958794295043 18.5361180201087,-33.8958638448847 18.5360992446456,-33.8958616185103</coordinates></LinearRing></outerBoundaryIs></Polygon>
  </Placemark>
  <Placemark>
	<name>4888</name>
	<Style><LineStyle><color>ff0000ff</color></LineStyle><PolyStyle><fill>0</fill></PolyStyle></Style>
      <Polygon><outerBoundaryIs><LinearRing><coordinates>18.536154044478,-33.8965662467087 18.5361594088961,-33.8965840575555 18.5361728199411,-33.8965796048442 18.5361687966276,-33.8965640203526 18.536154044478,-33.8965662467087</coordinates></LinearRing></outerBoundaryIs></Polygon>
  </Placemark>
</Folder>
</Document></kml>
